{
  "type": "FeatureCollection",
  "generator": "overpass-turbo",
  "copyright": "The data included in this document is from www.openstreetmap.org. The data is made available under ODbL.",
  "timestamp": "2021-09-16T05:20:00Z",
  "features": [
    {
      "type": "Feature",
      "properties": {
        "@id": "node/289323363",
        "amenity": "bank",
        "branch": "ده دی",
        "brand": "بانک ملت",
        "brand:en": "Bank Mellat",
        "brand:wikidata": "Q4855944",
        "brand:wikipedia": "en:Bank Mellat",
        "name": "بانک ملت",
        "name:en": "Bank Mellat",
        "website": "http://www.bankmillat.ir"
      },
      "geometry": {
        "type": "Point",
        "coordinates": [
          59.5988244,
          36.2852918
        ]
      },
      "id": "node/289323363"
    },
    {
      "type": "Feature",
      "properties": {
        "@id": "node/344463542",
        "amenity": "bank",
        "name": "بانک مسکن",
        "name:en": "Maskan",
        "operator": "Maskan Bank"
      },
      "geometry": {
        "type": "Point",
        "coordinates": [
          59.5932674,
          36.301873
        ]
      },
      "id": "node/344463542"
    },
    {
      "type": "Feature",
      "properties": {
        "@id": "node/344463563",
        "amenity": "bank",
        "bci": "8555",
        "branch": "تختی",
        "brand": "بانک ملی",
        "brand:en": "Bank Melli Iran",
        "brand:wikidata": "Q806640",
        "brand:wikipedia": "en:Bank Melli Iran",
        "name": "بانک ملی",
        "name:en": "Bank Melli Iran",
        "operator": "Melli Bank"
      },
      "geometry": {
        "type": "Point",
        "coordinates": [
          59.5920795,
          36.3013282
        ]
      },
      "id": "node/344463563"
    },
    {
      "type": "Feature",
      "properties": {
        "@id": "node/344463748",
        "amenity": "bank",
        "branch": "سعدآباد",
        "brand": "بانک صادرات",
        "brand:en": "Bank Saderat Iran",
        "brand:wikidata": "Q2882608",
        "brand:wikipedia": "en:Bank Saderat Iran",
        "name": "بانک صادرات",
        "name:en": "Bank Saderat Iran"
      },
      "geometry": {
        "type": "Point",
        "coordinates": [
          59.5924248,
          36.3014541
        ]
      },
      "id": "node/344463748"
    },
    {
      "type": "Feature",
      "properties": {
        "@id": "node/344464839",
        "amenity": "bank",
        "bic": "8507",
        "branch": "سناباد",
        "brand": "بانک ملی",
        "brand:en": "Bank Melli Iran",
        "brand:wikidata": "Q806640",
        "brand:wikipedia": "en:Bank Melli Iran",
        "name": "بانک ملی",
        "name:en": "Bank Melli Iran",
        "operator": "Melli Bank"
      },
      "geometry": {
        "type": "Point",
        "coordinates": [
          59.5840234,
          36.3012227
        ]
      },
      "id": "node/344464839"
    },
    {
      "type": "Feature",
      "properties": {
        "@id": "node/344464846",
        "amenity": "bank",
        "branch": "سناباد",
        "brand": "بانک صادرات",
        "brand:en": "Bank Saderat Iran",
        "brand:fa": "بانک صادرات",
        "brand:wikidata": "Q2882608",
        "brand:wikipedia": "en:Bank Saderat Iran",
        "name": "بانک صادرات",
        "name:en": "Bank Saderat Iran",
        "name:fa": "بانک صادرات",
        "operator": "Saderat Bank"
      },
      "geometry": {
        "type": "Point",
        "coordinates": [
          59.5838327,
          36.3008846
        ]
      },
      "id": "node/344464846"
    },
    {
      "type": "Feature",
      "properties": {
        "@id": "node/475079106",
        "amenity": "bank",
        "atm": "yes",
        "bic": "1001",
        "branch": "سجاد",
        "brand": "بانک پاسارگاد",
        "brand:en": "Bank Pasargad",
        "brand:wikidata": "Q4855962",
        "brand:wikipedia": "en:Bank Pasargad",
        "fax": "+98-511-7653100",
        "name": "بانک پاسارگاد",
        "name:en": "Bank Pasargad",
        "phone": "+98-511-7654476-9"
      },
      "geometry": {
        "type": "Point",
        "coordinates": [
          59.5520583,
          36.3178677
        ]
      },
      "id": "node/475079106"
    },
    {
      "type": "Feature",
      "properties": {
        "@id": "node/626927515",
        "amenity": "bank",
        "atm": "yes",
        "brand": "بانک صادرات",
        "brand:en": "Bank Saderat Iran",
        "brand:wikidata": "Q2882608",
        "brand:wikipedia": "en:Bank Saderat Iran",
        "name": "بانک صادرات",
        "name:en": "Bank Saderat Iran",
        "operator": "بانک صادرات"
      },
      "geometry": {
        "type": "Point",
        "coordinates": [
          59.5995097,
          36.2878252
        ]
      },
      "id": "node/626927515"
    },
    {
      "type": "Feature",
      "properties": {
        "@id": "node/645361381",
        "amenity": "bank",
        "atm": "yes",
        "bic": "9303",
        "branch": "سجاد",
        "brand": "بانک سامان",
        "brand:en": "Saman Bank",
        "brand:wikidata": "Q4117676",
        "brand:wikipedia": "en:Saman Bank",
        "fax": "+98-511-7674046",
        "name": "بانک سامان",
        "name:en": "Saman Bank",
        "phone": "+98-511-7648208-9"
      },
      "geometry": {
        "type": "Point",
        "coordinates": [
          59.5528528,
          36.3178264
        ]
      },
      "id": "node/645361381"
    },
    {
      "type": "Feature",
      "properties": {
        "@id": "node/645591523",
        "amenity": "bank",
        "atm": "yes",
        "branch": "دانشگاه",
        "brand": "بانک سپه",
        "brand:en": "Bank Sepah",
        "brand:wikidata": "Q2882624",
        "brand:wikipedia": "en:Bank Sepah",
        "name": "بانک سپه",
        "name:en": "Bank Sepah",
        "operator": "Sepah Bank"
      },
      "geometry": {
        "type": "Point",
        "coordinates": [
          59.5879391,
          36.2919955
        ]
      },
      "id": "node/645591523"
    },
    {
      "type": "Feature",
      "properties": {
        "@id": "node/648952222",
        "addr:city": "مشهد",
        "amenity": "bank",
        "atm": "yes",
        "bic": "9301",
        "branch": "مشهد",
        "brand": "بانک سامان",
        "brand:en": "Saman Bank",
        "brand:wikidata": "Q4117676",
        "brand:wikipedia": "en:Saman Bank",
        "fax": "+98 51 38443914",
        "name": "بانک سامان",
        "name:en": "Saman Bank",
        "operator": "Saman Bank",
        "phone": "+98 51 38461940-3"
      },
      "geometry": {
        "type": "Point",
        "coordinates": [
          59.5690862,
          36.2973592
        ]
      },
      "id": "node/648952222"
    },
    {
      "type": "Feature",
      "properties": {
        "@id": "node/648952233",
        "amenity": "bank",
        "atm": "yes",
        "branch": "احمدآباد",
        "brand": "بانک اقتصاد نوین",
        "brand:en": "EN Bank",
        "brand:wikidata": "Q5323768",
        "brand:wikipedia": "en:EN Bank",
        "fax": "+98-511-8454361",
        "name": "بانک اقتصاد نوین",
        "name:en": "EN Bank",
        "operator": "Eghtesad Novin",
        "phone": "+98-511-8454362-7"
      },
      "geometry": {
        "type": "Point",
        "coordinates": [
          59.5729796,
          36.2964511
        ]
      },
      "id": "node/648952233"
    },
    {
      "type": "Feature",
      "properties": {
        "@id": "node/648952241",
        "amenity": "bank",
        "atm": "yes",
        "branch": "احمدآباد",
        "brand": "بانک صادرات",
        "brand:en": "Bank Saderat Iran",
        "brand:wikidata": "Q2882608",
        "brand:wikipedia": "en:Bank Saderat Iran",
        "name": "بانک صادرات",
        "name:en": "Bank Saderat Iran",
        "operator": "Saderat Bank"
      },
      "geometry": {
        "type": "Point",
        "coordinates": [
          59.5769797,
          36.2946509
        ]
      },
      "id": "node/648952241"
    },
    {
      "type": "Feature",
      "properties": {
        "@id": "node/648952243",
        "amenity": "bank",
        "atm": "yes",
        "branch": "احمدآباد",
        "brand": "بانک ملت",
        "brand:en": "Bank Mellat",
        "brand:wikidata": "Q4855944",
        "brand:wikipedia": "en:Bank Mellat",
        "name": "بانک ملت",
        "name:en": "Bank Mellat",
        "operator": "Mellat Bank"
      },
      "geometry": {
        "type": "Point",
        "coordinates": [
          59.5772925,
          36.2945246
        ]
      },
      "id": "node/648952243"
    },
    {
      "type": "Feature",
      "properties": {
        "@id": "node/648952246",
        "amenity": "bank",
        "atm": "yes",
        "bic": "8546",
        "branch": "احمدآباد",
        "brand": "بانک ملی",
        "brand:en": "Bank Melli Iran",
        "brand:wikidata": "Q806640",
        "brand:wikipedia": "en:Bank Melli Iran",
        "name": "بانک ملی",
        "name:en": "Bank Melli Iran",
        "operator": "Melli Bank"
      },
      "geometry": {
        "type": "Point",
        "coordinates": [
          59.5767753,
          36.2947682
        ]
      },
      "id": "node/648952246"
    },
    {
      "type": "Feature",
      "properties": {
        "@id": "node/648952248",
        "amenity": "bank",
        "atm": "yes",
        "branch": "احمدآباد",
        "brand": "بانک پارسیان",
        "brand:en": "Parsian Bank",
        "brand:wikidata": "Q2410404",
        "brand:wikipedia": "en:Parsian Bank",
        "name": "بانک پارسیان",
        "name:en": "Parsian Bank",
        "operator": "Parsian Bank"
      },
      "geometry": {
        "type": "Point",
        "coordinates": [
          59.5764912,
          36.2949226
        ]
      },
      "id": "node/648952248"
    },
    {
      "type": "Feature",
      "properties": {
        "@id": "node/648952249",
        "amenity": "bank",
        "atm": "yes",
        "branch": "احمدآباد",
        "brand": "بانک کشاورزی",
        "brand:en": "Bank Keshavarzi Iran",
        "brand:wikidata": "Q6395007",
        "brand:wikipedia": "en:Bank Keshavarzi Iran",
        "name": "بانک کشاورزی",
        "name:en": "Bank Keshavarzi Iran",
        "operator": "Agriculture Bank"
      },
      "geometry": {
        "type": "Point",
        "coordinates": [
          59.5772533,
          36.2950956
        ]
      },
      "id": "node/648952249"
    },
    {
      "type": "Feature",
      "properties": {
        "@id": "node/648952250",
        "addr:city": "مشهد",
        "amenity": "bank",
        "atm": "yes",
        "branch": "احمدآباد",
        "brand": "بانک سرمایه",
        "brand:en": "Sarmayeh Bank",
        "brand:wikidata": "Q7424291",
        "brand:wikipedia": "en:Sarmayeh Bank",
        "name": "بانک سرمایه",
        "name:en": "Sarmayeh Bank",
        "operator": "Sarmayeh Bank"
      },
      "geometry": {
        "type": "Point",
        "coordinates": [
          59.5768211,
          36.295305
        ]
      },
      "id": "node/648952250"
    },
    {
      "type": "Feature",
      "properties": {
        "@id": "node/648952253",
        "amenity": "bank",
        "atm": "yes",
        "branch": "قائم",
        "brand": "بانک مسکن",
        "brand:en": "Bank Maskan",
        "brand:wikidata": "Q4855942",
        "brand:wikipedia": "en:Bank Maskan",
        "name": "بانک مسکن",
        "name:en": "Bank Maskan"
      },
      "geometry": {
        "type": "Point",
        "coordinates": [
          59.582205,
          36.2932991
        ]
      },
      "id": "node/648952253"
    },
    {
      "type": "Feature",
      "properties": {
        "@id": "node/648952254",
        "amenity": "bank",
        "atm": "yes",
        "name": "بانک گردشگری"
      },
      "geometry": {
        "type": "Point",
        "coordinates": [
          59.5831477,
          36.2929901
        ]
      },
      "id": "node/648952254"
    },
    {
      "type": "Feature",
      "properties": {
        "@id": "node/649623863",
        "amenity": "bank",
        "atm": "yes",
        "bic": "9302",
        "branch": "مدرس",
        "brand": "بانک سامان",
        "brand:en": "Saman Bank",
        "brand:wikidata": "Q4117676",
        "brand:wikipedia": "en:Saman Bank",
        "fax": "+98-511-2241044",
        "name": "بانک سامان",
        "name:en": "Saman Bank",
        "phone": "+98-511-2241046-9"
      },
      "geometry": {
        "type": "Point",
        "coordinates": [
          59.601685,
          36.2921988
        ]
      },
      "id": "node/649623863"
    },
    {
      "type": "Feature",
      "properties": {
        "@id": "node/650315354",
        "amenity": "bank",
        "atm": "no",
        "branch": "دارایی",
        "brand": "بانک ملی",
        "brand:en": "Bank Melli Iran",
        "brand:wikidata": "Q806640",
        "brand:wikipedia": "en:Bank Melli Iran",
        "name": "بانک ملی",
        "name:en": "Bank Melli Iran"
      },
      "geometry": {
        "type": "Point",
        "coordinates": [
          59.5984944,
          36.2862546
        ]
      },
      "id": "node/650315354"
    },
    {
      "type": "Feature",
      "properties": {
        "@id": "node/652430361",
        "amenity": "bank",
        "atm": "no",
        "branch": "بیمارستان امام رضا",
        "brand": "بانک ملی",
        "brand:en": "Bank Melli Iran",
        "brand:wikidata": "Q806640",
        "brand:wikipedia": "en:Bank Melli Iran",
        "name": "بانک ملی",
        "name:en": "Bank Melli Iran",
        "operator": "Melli Bank"
      },
      "geometry": {
        "type": "Point",
        "coordinates": [
          59.589684,
          36.288013
        ]
      },
      "id": "node/652430361"
    },
    {
      "type": "Feature",
      "properties": {
        "@id": "node/652430369",
        "amenity": "bank",
        "atm": "yes",
        "branch": "مدرس",
        "brand": "بانک ملی",
        "brand:en": "Bank Melli Iran",
        "brand:wikidata": "Q806640",
        "brand:wikipedia": "en:Bank Melli Iran",
        "name": "بانک ملی",
        "name:en": "Bank Melli Iran"
      },
      "geometry": {
        "type": "Point",
        "coordinates": [
          59.6018148,
          36.2913041
        ]
      },
      "id": "node/652430369"
    },
    {
      "type": "Feature",
      "properties": {
        "@id": "node/652430370",
        "amenity": "bank",
        "atm": "no",
        "branch": "مدرس",
        "brand": "بانک ملت",
        "brand:en": "Bank Mellat",
        "brand:wikidata": "Q4855944",
        "brand:wikipedia": "en:Bank Mellat",
        "name": "بانک ملت",
        "name:en": "Bank Mellat"
      },
      "geometry": {
        "type": "Point",
        "coordinates": [
          59.6019534,
          36.2919723
        ]
      },
      "id": "node/652430370"
    },
    {
      "type": "Feature",
      "properties": {
        "@id": "node/655159561",
        "amenity": "bank",
        "atm": "yes",
        "branch": "فلسطین",
        "brand": "بانک ملی",
        "brand:en": "Bank Melli Iran",
        "brand:wikidata": "Q806640",
        "brand:wikipedia": "en:Bank Melli Iran",
        "name": "بانک ملی",
        "name:en": "Bank Melli Iran",
        "operator": "Melli Bank"
      },
      "geometry": {
        "type": "Point",
        "coordinates": [
          59.5663574,
          36.3068484
        ]
      },
      "id": "node/655159561"
    },
    {
      "type": "Feature",
      "properties": {
        "@id": "node/655159563",
        "amenity": "bank",
        "atm": "yes",
        "branch": "میدان امام خمینی",
        "brand": "بانک ملی",
        "brand:en": "Bank Melli Iran",
        "brand:wikidata": "Q806640",
        "brand:wikipedia": "en:Bank Melli Iran",
        "name": "بانک ملی",
        "name:en": "Bank Melli Iran",
        "operator": "Melli Bank"
      },
      "geometry": {
        "type": "Point",
        "coordinates": [
          59.5922638,
          36.2739861
        ]
      },
      "id": "node/655159563"
    },
    {
      "type": "Feature",
      "properties": {
        "@id": "node/655159564",
        "amenity": "bank",
        "atm": "yes",
        "branch": "میدان امام خمینی",
        "brand": "بانک ملت",
        "brand:en": "Bank Mellat",
        "brand:wikidata": "Q4855944",
        "brand:wikipedia": "en:Bank Mellat",
        "name": "بانک ملت",
        "name:en": "Bank Mellat"
      },
      "geometry": {
        "type": "Point",
        "coordinates": [
          59.5926576,
          36.2737476
        ]
      },
      "id": "node/655159564"
    },
    {
      "type": "Feature",
      "properties": {
        "@id": "node/658405603",
        "amenity": "bank",
        "atm": "no",
        "name": "ملت",
        "operator": "Mellat Bank"
      },
      "geometry": {
        "type": "Point",
        "coordinates": [
          59.5746116,
          36.28316
        ]
      },
      "id": "node/658405603"
    },
    {
      "type": "Feature",
      "properties": {
        "@id": "node/658405611",
        "amenity": "bank",
        "atm": "yes",
        "bic": "1801",
        "fax": "+98-511-7640050",
        "name": "اقتصاد نوین",
        "name:en": "Eghtesad Novin-Sajad branch",
        "operator": "Eghtesad Novin",
        "phone": "+98-511-7681011-12"
      },
      "geometry": {
        "type": "Point",
        "coordinates": [
          59.5627071,
          36.3134078
        ]
      },
      "id": "node/658405611"
    },
    {
      "type": "Feature",
      "properties": {
        "@id": "node/659720445",
        "amenity": "bank",
        "atm": "yes",
        "branch": "ایرج میرزا",
        "brand": "بانک سپه",
        "brand:en": "Bank Sepah",
        "brand:wikidata": "Q2882624",
        "brand:wikipedia": "en:Bank Sepah",
        "name": "بانک سپه",
        "name:en": "Bank Sepah"
      },
      "geometry": {
        "type": "Point",
        "coordinates": [
          59.52564,
          36.32029
        ]
      },
      "id": "node/659720445"
    },
    {
      "type": "Feature",
      "properties": {
        "@id": "node/659720449",
        "amenity": "bank",
        "atm": "yes",
        "brand": "بانک ملی",
        "brand:en": "Bank Melli Iran",
        "brand:wikidata": "Q806640",
        "brand:wikipedia": "en:Bank Melli Iran",
        "name": "بانک ملی",
        "name:en": "Bank Melli Iran",
        "operator": "ملی"
      },
      "geometry": {
        "type": "Point",
        "coordinates": [
          59.5025986,
          36.3302971
        ]
      },
      "id": "node/659720449"
    },
    {
      "type": "Feature",
      "properties": {
        "@id": "node/659720453",
        "amenity": "bank",
        "atm": "yes",
        "brand": "بانک کشاورزی",
        "brand:en": "Bank Keshavarzi Iran",
        "brand:wikidata": "Q6395007",
        "brand:wikipedia": "en:Bank Keshavarzi Iran",
        "name": "بانک کشاورزی",
        "name:en": "Bank Keshavarzi Iran",
        "operator": "Agriculture Bank"
      },
      "geometry": {
        "type": "Point",
        "coordinates": [
          59.5233577,
          36.3210419
        ]
      },
      "id": "node/659720453"
    },
    {
      "type": "Feature",
      "properties": {
        "@id": "node/659720454",
        "amenity": "bank",
        "atm": "yes",
        "branch": "ایرج میرزا",
        "brand": "بانک کشاورزی",
        "brand:en": "Bank Keshavarzi Iran",
        "brand:wikidata": "Q6395007",
        "brand:wikipedia": "en:Bank Keshavarzi Iran",
        "name": "بانک کشاورزی",
        "name:en": "Bank Keshavarzi Iran",
        "operator": "Agriculture Bank"
      },
      "geometry": {
        "type": "Point",
        "coordinates": [
          59.5268836,
          36.3294271
        ]
      },
      "id": "node/659720454"
    },
    {
      "type": "Feature",
      "properties": {
        "@id": "node/663006123",
        "amenity": "bank",
        "atm": "yes",
        "bic": "2818",
        "branch": "امیر کبیر",
        "brand": "بانک صادرات",
        "brand:en": "Bank Saderat Iran",
        "brand:wikidata": "Q2882608",
        "brand:wikipedia": "en:Bank Saderat Iran",
        "name": "بانک صادرات",
        "name:en": "Bank Saderat Iran",
        "operator": "Saderat Bank"
      },
      "geometry": {
        "type": "Point",
        "coordinates": [
          59.5737722,
          36.2802533
        ]
      },
      "id": "node/663006123"
    },
    {
      "type": "Feature",
      "properties": {
        "@id": "node/663006125",
        "amenity": "bank",
        "atm": "yes",
        "branch": "ثامن",
        "brand": "بانک ملت",
        "brand:en": "Bank Mellat",
        "brand:wikidata": "Q4855944",
        "brand:wikipedia": "en:Bank Mellat",
        "name": "بانک ملت",
        "name:en": "Bank Mellat"
      },
      "geometry": {
        "type": "Point",
        "coordinates": [
          59.568005,
          36.293102
        ]
      },
      "id": "node/663006125"
    },
    {
      "type": "Feature",
      "properties": {
        "@id": "node/663800795",
        "amenity": "bank",
        "atm": "yes",
        "bic": "1805",
        "branch": "تقی آباد",
        "brand": "بانک اقتصاد نوین",
        "brand:en": "EN Bank",
        "brand:wikidata": "Q5323768",
        "brand:wikipedia": "en:EN Bank",
        "fax": "+98-511-8642052",
        "name": "بانک اقتصاد نوین",
        "name:en": "EN Bank",
        "operator": "Eghtesad Novin Bank",
        "phone": "+98-511-8661422-5"
      },
      "geometry": {
        "type": "Point",
        "coordinates": [
          59.5854989,
          36.2920145
        ]
      },
      "id": "node/663800795"
    },
    {
      "type": "Feature",
      "properties": {
        "@id": "node/663800796",
        "amenity": "bank",
        "atm": "yes",
        "bic": "663",
        "branch": "میدان شریعتی",
        "brand": "بانک صادرات",
        "brand:en": "Bank Saderat Iran",
        "brand:wikidata": "Q2882608",
        "brand:wikipedia": "en:Bank Saderat Iran",
        "name": "بانک صادرات",
        "name:en": "Bank Saderat Iran",
        "operator": "Saderat Bank"
      },
      "geometry": {
        "type": "Point",
        "coordinates": [
          59.5847264,
          36.2924955
        ]
      },
      "id": "node/663800796"
    },
    {
      "type": "Feature",
      "properties": {
        "@id": "node/664453507",
        "amenity": "bank",
        "atm": "yes",
        "branch": "انقلاب اسلامی",
        "brand": "بانک صادرات",
        "brand:en": "Bank Saderat Iran",
        "brand:wikidata": "Q2882608",
        "brand:wikipedia": "en:Bank Saderat Iran",
        "name": "بانک صادرات",
        "name:en": "Bank Saderat Iran"
      },
      "geometry": {
        "type": "Point",
        "coordinates": [
          59.5902542,
          36.2864795
        ]
      },
      "id": "node/664453507"
    },
    {
      "type": "Feature",
      "properties": {
        "@id": "node/667296553",
        "amenity": "bank",
        "atm": "yes",
        "branch": "بولوار سجاد",
        "brand": "بانک کشاورزی",
        "brand:en": "Bank Keshavarzi Iran",
        "brand:wikidata": "Q6395007",
        "brand:wikipedia": "en:Bank Keshavarzi Iran",
        "name": "بانک کشاورزی",
        "name:en": "Bank Keshavarzi Iran",
        "operator": "Agriculture Bank"
      },
      "geometry": {
        "type": "Point",
        "coordinates": [
          59.5612836,
          36.3139027
        ]
      },
      "id": "node/667296553"
    },
    {
      "type": "Feature",
      "properties": {
        "@id": "node/667296554",
        "amenity": "bank",
        "atm": "yes",
        "branch": "هدایت",
        "brand": "بانک صادرات",
        "brand:en": "Bank Saderat Iran",
        "brand:wikidata": "Q2882608",
        "brand:wikipedia": "en:Bank Saderat Iran",
        "name": "بانک صادرات",
        "name:en": "Bank Saderat Iran",
        "operator": "Saderat Bank"
      },
      "geometry": {
        "type": "Point",
        "coordinates": [
          59.5615282,
          36.314261
        ]
      },
      "id": "node/667296554"
    },
    {
      "type": "Feature",
      "properties": {
        "@id": "node/667296556",
        "amenity": "bank",
        "atm": "yes",
        "branch": "مشهد",
        "brand": "بانک پارسیان",
        "brand:en": "Parsian Bank",
        "brand:wikidata": "Q2410404",
        "brand:wikipedia": "en:Parsian Bank",
        "name": "بانک پارسیان",
        "name:en": "Parsian Bank",
        "operator": "Parsian Bank"
      },
      "geometry": {
        "type": "Point",
        "coordinates": [
          59.5949929,
          36.2943436
        ]
      },
      "id": "node/667296556"
    },
    {
      "type": "Feature",
      "properties": {
        "@id": "node/667296558",
        "amenity": "bank",
        "atm": "yes",
        "bic": "8544",
        "branch": "دانشگاه",
        "brand": "بانک ملی",
        "brand:en": "Bank Melli Iran",
        "brand:wikidata": "Q806640",
        "brand:wikipedia": "en:Bank Melli Iran",
        "name": "بانک ملی",
        "name:en": "Bank Melli Iran",
        "operator": "Melli Bank"
      },
      "geometry": {
        "type": "Point",
        "coordinates": [
          59.5955581,
          36.2941399
        ]
      },
      "id": "node/667296558"
    },
    {
      "type": "Feature",
      "properties": {
        "@id": "node/667296562",
        "amenity": "bank",
        "atm": "no",
        "branch": "دانشگاه",
        "brand": "بانک ملت",
        "brand:en": "Bank Mellat",
        "brand:wikidata": "Q4855944",
        "brand:wikipedia": "en:Bank Mellat",
        "name": "بانک ملت",
        "name:en": "Bank Mellat",
        "operator": "Mellat Bank"
      },
      "geometry": {
        "type": "Point",
        "coordinates": [
          59.5956577,
          36.2941719
        ]
      },
      "id": "node/667296562"
    },
    {
      "type": "Feature",
      "properties": {
        "@id": "node/667296563",
        "amenity": "bank",
        "atm": "no",
        "branch": "دانشگاه",
        "brand": "بانک سینا",
        "brand:en": "Sina Bank",
        "brand:wikidata": "Q10860246",
        "brand:wikipedia": "en:Sina Bank",
        "name": "بانک سینا",
        "name:en": "Sina Bank",
        "operator": "Sina Bank"
      },
      "geometry": {
        "type": "Point",
        "coordinates": [
          59.597807,
          36.2953359
        ]
      },
      "id": "node/667296563"
    },
    {
      "type": "Feature",
      "properties": {
        "@id": "node/667296565",
        "amenity": "bank",
        "atm": "no",
        "branch": "میدان سعدی",
        "brand": "بانک صادرات",
        "brand:en": "Bank Saderat Iran",
        "brand:wikidata": "Q2882608",
        "brand:wikipedia": "en:Bank Saderat Iran",
        "name": "بانک صادرات",
        "name:en": "Bank Saderat Iran",
        "operator": "Saderat Bank"
      },
      "geometry": {
        "type": "Point",
        "coordinates": [
          59.5991145,
          36.2964896
        ]
      },
      "id": "node/667296565"
    },
    {
      "type": "Feature",
      "properties": {
        "@id": "node/667327775",
        "amenity": "bank",
        "atm": "yes",
        "branch": "احمدآباد",
        "brand": "بانک پاسارگاد",
        "brand:en": "Bank Pasargad",
        "brand:wikidata": "Q4855962",
        "brand:wikipedia": "en:Bank Pasargad",
        "name": "بانک پاسارگاد",
        "name:en": "Bank Pasargad",
        "operator": "Pasargad Bank"
      },
      "geometry": {
        "type": "Point",
        "coordinates": [
          59.5791742,
          36.2938238
        ]
      },
      "id": "node/667327775"
    },
    {
      "type": "Feature",
      "properties": {
        "@id": "node/667327776",
        "amenity": "bank",
        "atm": "yes",
        "bic": "1004",
        "branch": "آزادشهر",
        "brand": "بانک پاسارگاد",
        "brand:en": "Bank Pasargad",
        "brand:wikidata": "Q4855962",
        "brand:wikipedia": "en:Bank Pasargad",
        "fax": "+98-511-6066005",
        "name": "بانک پاسارگاد",
        "name:en": "Bank Pasargad",
        "phone": "+98-511-6066001-3"
      },
      "geometry": {
        "type": "Point",
        "coordinates": [
          59.5306638,
          36.3299546
        ]
      },
      "id": "node/667327776"
    },
    {
      "type": "Feature",
      "properties": {
        "@id": "node/667327777",
        "amenity": "bank",
        "atm": "yes",
        "branch": "خسروی",
        "brand": "بانک پاسارگاد",
        "brand:en": "Bank Pasargad",
        "brand:wikidata": "Q4855962",
        "brand:wikipedia": "en:Bank Pasargad",
        "name": "بانک پاسارگاد",
        "name:en": "Bank Pasargad",
        "operator": "Pasargad Bank"
      },
      "geometry": {
        "type": "Point",
        "coordinates": [
          59.6050468,
          36.2913038
        ]
      },
      "id": "node/667327777"
    },
    {
      "type": "Feature",
      "properties": {
        "@id": "node/668994185",
        "amenity": "bank",
        "atm": "yes",
        "branch": "مطهری",
        "brand": "بانک تجارت",
        "brand:wikidata": "Q7695198",
        "brand:wikipedia": "en:Tejarat Bank",
        "name": "بانک تجارت"
      },
      "geometry": {
        "type": "Point",
        "coordinates": [
          59.5951381,
          36.3064856
        ]
      },
      "id": "node/668994185"
    },
    {
      "type": "Feature",
      "properties": {
        "@id": "node/670899554",
        "amenity": "bank",
        "atm": "yes",
        "branch": "پل خاکی",
        "brand": "بانک ملت",
        "brand:en": "Bank Mellat",
        "brand:wikidata": "Q4855944",
        "brand:wikipedia": "en:Bank Mellat",
        "name": "بانک ملت",
        "name:en": "Bank Mellat"
      },
      "geometry": {
        "type": "Point",
        "coordinates": [
          59.5914949,
          36.2985737
        ]
      },
      "id": "node/670899554"
    },
    {
      "type": "Feature",
      "properties": {
        "@id": "node/676994712",
        "amenity": "bank",
        "atm": "no",
        "branch": "ایرج میرزا",
        "brand": "بانک پارسیان",
        "brand:en": "Parsian Bank",
        "brand:wikidata": "Q2410404",
        "brand:wikipedia": "en:Parsian Bank",
        "name": "بانک پارسیان",
        "name:en": "Parsian Bank"
      },
      "geometry": {
        "type": "Point",
        "coordinates": [
          59.52852,
          36.3280368
        ]
      },
      "id": "node/676994712"
    },
    {
      "type": "Feature",
      "properties": {
        "@id": "node/687715517",
        "amenity": "bank",
        "atm": "yes",
        "bic": "136",
        "branch": "کوهسنگی",
        "brand": "بانک سینا",
        "brand:en": "Sina Bank",
        "brand:wikidata": "Q10860246",
        "brand:wikipedia": "en:Sina Bank",
        "name": "بانک سینا",
        "name:en": "Sina Bank",
        "operator": "Sina Bank"
      },
      "geometry": {
        "type": "Point",
        "coordinates": [
          59.5743891,
          36.2869829
        ]
      },
      "id": "node/687715517"
    },
    {
      "type": "Feature",
      "properties": {
        "@id": "node/687715533",
        "amenity": "bank",
        "atm": "yes",
        "branch": "الندشت",
        "brand": "بانک صادرات",
        "brand:en": "Bank Saderat Iran",
        "brand:wikidata": "Q2882608",
        "brand:wikipedia": "en:Bank Saderat Iran",
        "name": "بانک صادرات",
        "name:en": "Bank Saderat Iran",
        "operator": "Saderat Bank"
      },
      "geometry": {
        "type": "Point",
        "coordinates": [
          59.5803413,
          36.2893572
        ]
      },
      "id": "node/687715533"
    },
    {
      "type": "Feature",
      "properties": {
        "@id": "node/690985456",
        "amenity": "bank",
        "atm": "yes",
        "branch": "گاز",
        "brand": "بانک سپه",
        "brand:en": "Bank Sepah",
        "brand:wikidata": "Q2882624",
        "brand:wikipedia": "en:Bank Sepah",
        "name": "بانک سپه",
        "name:en": "Bank Sepah"
      },
      "geometry": {
        "type": "Point",
        "coordinates": [
          59.6285665,
          36.3163145
        ]
      },
      "id": "node/690985456"
    },
    {
      "type": "Feature",
      "properties": {
        "@id": "node/701969192",
        "amenity": "bank",
        "atm": "yes",
        "branch": "بولوار ارشاد",
        "brand": "بانک کشاورزی",
        "brand:en": "Bank Keshavarzi Iran",
        "brand:wikidata": "Q6395007",
        "brand:wikipedia": "en:Bank Keshavarzi Iran",
        "name": "بانک کشاورزی",
        "name:en": "Bank Keshavarzi Iran"
      },
      "geometry": {
        "type": "Point",
        "coordinates": [
          59.5654504,
          36.3189039
        ]
      },
      "id": "node/701969192"
    },
    {
      "type": "Feature",
      "properties": {
        "@id": "node/706667936",
        "amenity": "bank",
        "atm": "no",
        "branch": "خواجه ربیع",
        "brand": "بانک مسکن",
        "brand:en": "Bank Maskan",
        "brand:wikidata": "Q4855942",
        "brand:wikipedia": "en:Bank Maskan",
        "name": "بانک مسکن",
        "name:en": "Bank Maskan"
      },
      "geometry": {
        "type": "Point",
        "coordinates": [
          59.6223038,
          36.3237508
        ]
      },
      "id": "node/706667936"
    },
    {
      "type": "Feature",
      "properties": {
        "@id": "node/731425393",
        "amenity": "bank",
        "branch": "بعثت",
        "brand": "بانک سپه",
        "brand:en": "Bank Sepah",
        "brand:wikidata": "Q2882624",
        "brand:wikipedia": "en:Bank Sepah",
        "name": "بانک سپه",
        "name:en": "Bank Sepah",
        "operator": "Sepah Bank"
      },
      "geometry": {
        "type": "Point",
        "coordinates": [
          59.646836,
          36.3076168
        ]
      },
      "id": "node/731425393"
    },
    {
      "type": "Feature",
      "properties": {
        "@id": "node/834485585",
        "amenity": "bank",
        "atm": "yes",
        "branch": "مرکزی",
        "brand": "بانک ملت",
        "brand:en": "Bank Mellat",
        "brand:wikidata": "Q4855944",
        "brand:wikipedia": "en:Bank Mellat",
        "name": "بانک ملت",
        "name:en": "Bank Mellat",
        "operator": "ءثممشف إشدن"
      },
      "geometry": {
        "type": "Point",
        "coordinates": [
          59.6037207,
          36.2910774
        ]
      },
      "id": "node/834485585"
    },
    {
      "type": "Feature",
      "properties": {
        "@id": "node/1057534056",
        "addr:street": "میدان شهید کاوه",
        "amenity": "bank",
        "name": "بانک ملی",
        "operator": "Melli Bank"
      },
      "geometry": {
        "type": "Point",
        "coordinates": [
          59.5483476,
          36.2839245
        ]
      },
      "id": "node/1057534056"
    },
    {
      "type": "Feature",
      "properties": {
        "@id": "node/1088548438",
        "amenity": "bank",
        "atm": "yes",
        "branch": "احمدآباد",
        "brand": "بانک رفاه",
        "brand:en": "Refah Bank",
        "brand:wikidata": "Q7307083",
        "brand:wikipedia": "en:Refah Bank",
        "name": "بانک رفاه",
        "name:en": "Refah Bank",
        "operator": "Refah"
      },
      "geometry": {
        "type": "Point",
        "coordinates": [
          59.5698157,
          36.2978348
        ]
      },
      "id": "node/1088548438"
    },
    {
      "type": "Feature",
      "properties": {
        "@id": "node/1088548480",
        "amenity": "bank",
        "atm": "yes",
        "branch": "راهنمایی",
        "brand": "بانک ملت",
        "brand:en": "Bank Mellat",
        "brand:wikidata": "Q4855944",
        "brand:wikipedia": "en:Bank Mellat",
        "name": "بانک ملت",
        "name:en": "Bank Mellat",
        "operator": "Mellat Bank"
      },
      "geometry": {
        "type": "Point",
        "coordinates": [
          59.5704822,
          36.2981662
        ]
      },
      "id": "node/1088548480"
    },
    {
      "type": "Feature",
      "properties": {
        "@id": "node/1088697628",
        "amenity": "bank",
        "atm": "yes",
        "branch": "مدرس",
        "brand": "بانک صادرات",
        "brand:en": "Bank Saderat Iran",
        "brand:wikidata": "Q2882608",
        "brand:wikipedia": "en:Bank Saderat Iran",
        "name": "بانک صادرات",
        "name:en": "Bank Saderat Iran",
        "operator": "Saderat Bank"
      },
      "geometry": {
        "type": "Point",
        "coordinates": [
          59.6021015,
          36.2910857
        ]
      },
      "id": "node/1088697628"
    },
    {
      "type": "Feature",
      "properties": {
        "@id": "node/1183434611",
        "amenity": "bank",
        "atm": "yes",
        "branch": "دهم مهتاب",
        "brand": "بانک صادرات",
        "brand:en": "Bank Saderat Iran",
        "brand:wikidata": "Q2882608",
        "brand:wikipedia": "en:Bank Saderat Iran",
        "name": "بانک صادرات",
        "name:en": "Bank Saderat Iran",
        "operator": "Saderat Bank"
      },
      "geometry": {
        "type": "Point",
        "coordinates": [
          59.595575,
          36.2715102
        ]
      },
      "id": "node/1183434611"
    },
    {
      "type": "Feature",
      "properties": {
        "@id": "node/1183434798",
        "amenity": "bank",
        "atm": "yes",
        "branch": "امام خمینی",
        "brand": "بانک مسکن",
        "brand:en": "Bank Maskan",
        "brand:wikidata": "Q4855942",
        "brand:wikipedia": "en:Bank Maskan",
        "name": "بانک مسکن",
        "name:en": "Bank Maskan"
      },
      "geometry": {
        "type": "Point",
        "coordinates": [
          59.5944944,
          36.2726115
        ]
      },
      "id": "node/1183434798"
    },
    {
      "type": "Feature",
      "properties": {
        "@id": "node/1183434820",
        "amenity": "bank",
        "atm": "yes",
        "branch": "۱۵ خرداد",
        "brand": "بانک تجارت",
        "brand:wikidata": "Q7695198",
        "brand:wikipedia": "en:Tejarat Bank",
        "name": "بانک تجارت"
      },
      "geometry": {
        "type": "Point",
        "coordinates": [
          59.5974716,
          36.2696131
        ]
      },
      "id": "node/1183434820"
    },
    {
      "type": "Feature",
      "properties": {
        "@id": "node/1219618256",
        "amenity": "bank",
        "atm": "yes",
        "branch": "بهار",
        "brand": "بانک سپه",
        "brand:en": "Bank Sepah",
        "brand:wikidata": "Q2882624",
        "brand:wikipedia": "en:Bank Sepah",
        "name": "بانک سپه",
        "name:en": "Bank Sepah",
        "operator": "Sepah Bank"
      },
      "geometry": {
        "type": "Point",
        "coordinates": [
          59.6010924,
          36.2763186
        ]
      },
      "id": "node/1219618256"
    },
    {
      "type": "Feature",
      "properties": {
        "@id": "node/1219618439",
        "amenity": "bank",
        "atm": "yes",
        "branch": "خیابان تهران",
        "brand": "بانک تجارت",
        "brand:wikidata": "Q7695198",
        "brand:wikipedia": "en:Tejarat Bank",
        "name": "بانک تجارت",
        "name:en": "Tejarat- Tehran street branch",
        "operator": "Tejarat Bank"
      },
      "geometry": {
        "type": "Point",
        "coordinates": [
          59.6041089,
          36.273583
        ]
      },
      "id": "node/1219618439"
    },
    {
      "type": "Feature",
      "properties": {
        "@id": "node/1219618469",
        "amenity": "bank",
        "atm": "yes",
        "branch": "رضوی",
        "brand": "بانک ملت",
        "brand:en": "Bank Mellat",
        "brand:wikidata": "Q4855944",
        "brand:wikipedia": "en:Bank Mellat",
        "name": "بانک ملت",
        "name:en": "Bank Mellat"
      },
      "geometry": {
        "type": "Point",
        "coordinates": [
          59.6028198,
          36.2736483
        ]
      },
      "id": "node/1219618469"
    },
    {
      "type": "Feature",
      "properties": {
        "@id": "node/1219647704",
        "amenity": "bank",
        "atm": "yes",
        "branch": "عدل خمینی",
        "brand": "بانک سپه",
        "brand:en": "Bank Sepah",
        "brand:wikidata": "Q2882624",
        "brand:wikipedia": "en:Bank Sepah",
        "name": "بانک سپه",
        "name:en": "Bank Sepah"
      },
      "geometry": {
        "type": "Point",
        "coordinates": [
          59.5902484,
          36.2725806
        ]
      },
      "id": "node/1219647704"
    },
    {
      "type": "Feature",
      "properties": {
        "@id": "node/1219647740",
        "amenity": "bank",
        "atm": "yes",
        "branch": "میدان ۱۵ خرداد",
        "brand": "بانک صادرات",
        "brand:en": "Bank Saderat Iran",
        "brand:wikidata": "Q2882608",
        "brand:wikipedia": "en:Bank Saderat Iran",
        "name": "بانک صادرات",
        "name:en": "Bank Saderat Iran",
        "operator": "Saderat Bank"
      },
      "geometry": {
        "type": "Point",
        "coordinates": [
          59.5995022,
          36.2686332
        ]
      },
      "id": "node/1219647740"
    },
    {
      "type": "Feature",
      "properties": {
        "@id": "node/1750032598",
        "amenity": "bank",
        "atm": "no",
        "branch": "حر",
        "brand": "بانک مسکن",
        "brand:en": "Bank Maskan",
        "brand:wikidata": "Q4855942",
        "brand:wikipedia": "en:Bank Maskan",
        "name": "بانک مسکن",
        "name:en": "Bank Maskan",
        "operator": "Maskan Bank"
      },
      "geometry": {
        "type": "Point",
        "coordinates": [
          59.5152102,
          36.3036683
        ]
      },
      "id": "node/1750032598"
    },
    {
      "type": "Feature",
      "properties": {
        "@id": "node/1750032599",
        "amenity": "bank",
        "atm": "yes",
        "branch": "وکیل آباد",
        "brand": "بانک مسکن",
        "brand:en": "Bank Maskan",
        "brand:wikidata": "Q4855942",
        "brand:wikipedia": "en:Bank Maskan",
        "name": "بانک مسکن",
        "name:en": "Bank Maskan"
      },
      "geometry": {
        "type": "Point",
        "coordinates": [
          59.5036285,
          36.3261983
        ]
      },
      "id": "node/1750032599"
    },
    {
      "type": "Feature",
      "properties": {
        "@id": "node/1750032600",
        "amenity": "bank",
        "atm": "yes",
        "brand": "بانک ملت",
        "brand:en": "Bank Mellat",
        "brand:wikidata": "Q4855944",
        "brand:wikipedia": "en:Bank Mellat",
        "name": "بانک ملت",
        "name:en": "Bank Mellat",
        "operator": "Mellat Bank"
      },
      "geometry": {
        "type": "Point",
        "coordinates": [
          59.5101127,
          36.3241697
        ]
      },
      "id": "node/1750032600"
    },
    {
      "type": "Feature",
      "properties": {
        "@id": "node/1750032601",
        "amenity": "bank",
        "atm": "yes",
        "branch": "المهدی",
        "brand": "بانک ملت",
        "brand:en": "Bank Mellat",
        "brand:wikidata": "Q4855944",
        "brand:wikipedia": "en:Bank Mellat",
        "name": "بانک ملت",
        "name:en": "Bank Mellat"
      },
      "geometry": {
        "type": "Point",
        "coordinates": [
          59.6014481,
          36.2472694
        ]
      },
      "id": "node/1750032601"
    },
    {
      "type": "Feature",
      "properties": {
        "@id": "node/1750032602",
        "amenity": "bank",
        "atm": "yes",
        "branch": "فارغ التحصیلان",
        "brand": "بانک ملت",
        "brand:en": "Bank Mellat",
        "brand:wikidata": "Q4855944",
        "brand:wikipedia": "en:Bank Mellat",
        "name": "بانک ملت",
        "name:en": "Bank Mellat"
      },
      "geometry": {
        "type": "Point",
        "coordinates": [
          59.4697011,
          36.3378077
        ]
      },
      "id": "node/1750032602"
    },
    {
      "type": "Feature",
      "properties": {
        "@id": "node/1750032603",
        "amenity": "bank",
        "atm": "yes",
        "branch": "رودکی",
        "brand": "بانک ملت",
        "brand:en": "Bank Mellat",
        "brand:wikidata": "Q4855944",
        "brand:wikipedia": "en:Bank Mellat",
        "name": "بانک ملت",
        "name:en": "Bank Mellat",
        "operator": "Mellat Bank"
      },
      "geometry": {
        "type": "Point",
        "coordinates": [
          59.5404223,
          36.2897103
        ]
      },
      "id": "node/1750032603"
    },
    {
      "type": "Feature",
      "properties": {
        "@id": "node/1750032604",
        "amenity": "bank",
        "atm": "yes",
        "branch": "امام خمینی",
        "brand": "بانک ملی",
        "brand:en": "Bank Melli Iran",
        "brand:wikidata": "Q806640",
        "brand:wikipedia": "en:Bank Melli Iran",
        "name": "بانک ملی",
        "name:en": "Bank Melli Iran"
      },
      "geometry": {
        "type": "Point",
        "coordinates": [
          59.6038604,
          36.2947426
        ]
      },
      "id": "node/1750032604"
    },
    {
      "type": "Feature",
      "properties": {
        "@id": "node/1750032607",
        "amenity": "bank",
        "atm": "yes",
        "brand": "بانک صادرات",
        "brand:en": "Bank Saderat Iran",
        "brand:wikidata": "Q2882608",
        "brand:wikipedia": "en:Bank Saderat Iran",
        "name": "بانک صادرات",
        "name:en": "Bank Saderat Iran",
        "operator": "Saderat Bank"
      },
      "geometry": {
        "type": "Point",
        "coordinates": [
          59.5080915,
          36.3248007
        ]
      },
      "id": "node/1750032607"
    },
    {
      "type": "Feature",
      "properties": {
        "@id": "node/1750032608",
        "amenity": "bank",
        "atm": "yes",
        "branch": "هاشمیه",
        "brand": "بانک صادرات",
        "brand:en": "Bank Saderat Iran",
        "brand:wikidata": "Q2882608",
        "brand:wikipedia": "en:Bank Saderat Iran",
        "name": "بانک صادرات",
        "name:en": "Bank Saderat Iran",
        "opening_hours": "Sa-Th 07:30-14:00",
        "operator": "Saderat Bank"
      },
      "geometry": {
        "type": "Point",
        "coordinates": [
          59.5091162,
          36.3155041
        ]
      },
      "id": "node/1750032608"
    },
    {
      "type": "Feature",
      "properties": {
        "@id": "node/1750032609",
        "amenity": "bank",
        "atm": "yes",
        "branch": "خاقانی",
        "brand": "بانک صادرات",
        "brand:en": "Bank Saderat Iran",
        "brand:wikidata": "Q2882608",
        "brand:wikipedia": "en:Bank Saderat Iran",
        "name": "بانک صادرات",
        "name:en": "Bank Saderat Iran",
        "operator": "Saderat Bank"
      },
      "geometry": {
        "type": "Point",
        "coordinates": [
          59.5411844,
          36.2892713
        ]
      },
      "id": "node/1750032609"
    },
    {
      "type": "Feature",
      "properties": {
        "@id": "node/1750032610",
        "addr:street": "بولوار رضوی",
        "amenity": "bank",
        "atm": "yes",
        "branch": "رضوی",
        "brand": "بانک صادرات",
        "brand:en": "Bank Saderat Iran",
        "brand:wikidata": "Q2882608",
        "brand:wikipedia": "en:Bank Saderat Iran",
        "name": "بانک صادرات",
        "name:en": "Bank Saderat Iran",
        "operator": "Saderat Bank"
      },
      "geometry": {
        "type": "Point",
        "coordinates": [
          59.5432549,
          36.2938891
        ]
      },
      "id": "node/1750032610"
    },
    {
      "type": "Feature",
      "properties": {
        "@id": "node/1750032611",
        "amenity": "bank",
        "atm": "yes",
        "branch": "سیدی",
        "brand": "بانک صادرات",
        "brand:en": "Bank Saderat Iran",
        "brand:wikidata": "Q2882608",
        "brand:wikipedia": "en:Bank Saderat Iran",
        "name": "بانک صادرات",
        "name:en": "Bank Saderat Iran"
      },
      "geometry": {
        "type": "Point",
        "coordinates": [
          59.6034371,
          36.2461315
        ]
      },
      "id": "node/1750032611"
    },
    {
      "type": "Feature",
      "properties": {
        "@id": "node/1750032615",
        "amenity": "bank",
        "atm": "yes",
        "branch": "المهدی",
        "brand": "بانک سپه",
        "brand:en": "Bank Sepah",
        "brand:wikidata": "Q2882624",
        "brand:wikipedia": "en:Bank Sepah",
        "name": "بانک سپه",
        "name:en": "Bank Sepah"
      },
      "geometry": {
        "type": "Point",
        "coordinates": [
          59.6009216,
          36.2480314
        ]
      },
      "id": "node/1750032615"
    },
    {
      "type": "Feature",
      "properties": {
        "@id": "node/1750032616",
        "amenity": "bank",
        "atm": "yes",
        "branch": "وکیل آباد",
        "brand": "بانک سپه",
        "brand:en": "Bank Sepah",
        "brand:wikidata": "Q2882624",
        "brand:wikipedia": "en:Bank Sepah",
        "name": "بانک سپه",
        "name:en": "Bank Sepah",
        "operator": "Sepah Bank"
      },
      "geometry": {
        "type": "Point",
        "coordinates": [
          59.4789217,
          36.3338986
        ]
      },
      "id": "node/1750032616"
    },
    {
      "type": "Feature",
      "properties": {
        "@id": "node/1750032624",
        "amenity": "bank",
        "atm": "yes",
        "branch": "وکیل آباد",
        "brand": "بانک تجارت",
        "brand:wikidata": "Q7695198",
        "brand:wikipedia": "en:Tejarat Bank",
        "name": "بانک تجارت"
      },
      "geometry": {
        "type": "Point",
        "coordinates": [
          59.503791,
          36.3261369
        ]
      },
      "id": "node/1750032624"
    },
    {
      "type": "Feature",
      "properties": {
        "@id": "node/1750033044",
        "addr:street": "بولوار پیروزی",
        "amenity": "bank",
        "atm": "yes",
        "branch": "رضاشهر",
        "brand": "بانک سپه",
        "brand:en": "Bank Sepah",
        "brand:wikidata": "Q2882624",
        "brand:wikipedia": "en:Bank Sepah",
        "drive_through": "yes",
        "name": "بانک سپه",
        "name:en": "Bank Sepah",
        "operator": "Sepah Bank"
      },
      "geometry": {
        "type": "Point",
        "coordinates": [
          59.5384696,
          36.2909151
        ]
      },
      "id": "node/1750033044"
    },
    {
      "type": "Feature",
      "properties": {
        "@id": "node/1750033046",
        "amenity": "bank",
        "atm": "yes",
        "brand": "بانک ملت",
        "brand:en": "Bank Mellat",
        "brand:wikidata": "Q4855944",
        "brand:wikipedia": "en:Bank Mellat",
        "name": "بانک ملت",
        "name:en": "Bank Mellat",
        "operator": "Mellat Bank"
      },
      "geometry": {
        "type": "Point",
        "coordinates": [
          59.5431935,
          36.2944187
        ]
      },
      "id": "node/1750033046"
    },
    {
      "type": "Feature",
      "properties": {
        "@id": "node/1750033049",
        "addr:street": "بولوار پیروزی",
        "amenity": "bank",
        "atm": "yes",
        "brand": "بانک کشاورزی",
        "brand:en": "Bank Keshavarzi Iran",
        "brand:wikidata": "Q6395007",
        "brand:wikipedia": "en:Bank Keshavarzi Iran",
        "name": "بانک کشاورزی",
        "name:en": "Bank Keshavarzi Iran",
        "operator": "Agriculture Bank"
      },
      "geometry": {
        "type": "Point",
        "coordinates": [
          59.5395226,
          36.2897037
        ]
      },
      "id": "node/1750033049"
    },
    {
      "type": "Feature",
      "properties": {
        "@id": "node/1791494822",
        "amenity": "bank",
        "atm": "yes",
        "brand": "بانک صادرات",
        "brand:en": "Bank Saderat Iran",
        "brand:wikidata": "Q2882608",
        "brand:wikipedia": "en:Bank Saderat Iran",
        "name": "بانک صادرات",
        "name:en": "Bank Saderat Iran",
        "operator": "Saderat Bank"
      },
      "geometry": {
        "type": "Point",
        "coordinates": [
          59.5300443,
          36.3280203
        ]
      },
      "id": "node/1791494822"
    },
    {
      "type": "Feature",
      "properties": {
        "@id": "node/1791494830",
        "amenity": "bank",
        "name": "مسکن",
        "name:en": "Maskan bank",
        "operator": "Maskan Bank"
      },
      "geometry": {
        "type": "Point",
        "coordinates": [
          59.5327892,
          36.3270926
        ]
      },
      "id": "node/1791494830"
    },
    {
      "type": "Feature",
      "properties": {
        "@id": "node/1791494837",
        "amenity": "bank",
        "atm": "yes",
        "brand": "بانک ملی",
        "brand:en": "Bank Melli Iran",
        "brand:wikidata": "Q806640",
        "brand:wikipedia": "en:Bank Melli Iran",
        "name": "بانک ملی",
        "name:en": "Bank Melli Iran",
        "name:fa": "بانک ملی",
        "operator": "Melli Bank"
      },
      "geometry": {
        "type": "Point",
        "coordinates": [
          59.5333351,
          36.3269705
        ]
      },
      "id": "node/1791494837"
    },
    {
      "type": "Feature",
      "properties": {
        "@id": "node/1806003643",
        "amenity": "bank",
        "atm": "yes",
        "branch": "میدان بار رضوی",
        "brand": "بانک ملی",
        "brand:en": "Bank Melli Iran",
        "brand:wikidata": "Q806640",
        "brand:wikipedia": "en:Bank Melli Iran",
        "name": "بانک ملی",
        "name:en": "Bank Melli Iran",
        "operator": "Melli Bank"
      },
      "geometry": {
        "type": "Point",
        "coordinates": [
          59.6584139,
          36.269571
        ]
      },
      "id": "node/1806003643"
    },
    {
      "type": "Feature",
      "properties": {
        "@id": "node/2260295141",
        "amenity": "bank",
        "atm": "yes",
        "name": "بانک مسکن",
        "name:en": "Bank Maskan"
      },
      "geometry": {
        "type": "Point",
        "coordinates": [
          59.5169332,
          36.3523199
        ]
      },
      "id": "node/2260295141"
    },
    {
      "type": "Feature",
      "properties": {
        "@id": "node/2278077919",
        "amenity": "bank",
        "atm": "yes",
        "brand": "بانک سپه",
        "brand:en": "Bank Sepah",
        "brand:wikidata": "Q2882624",
        "brand:wikipedia": "en:Bank Sepah",
        "name": "بانک سپه",
        "name:en": "Bank Sepah"
      },
      "geometry": {
        "type": "Point",
        "coordinates": [
          59.4817143,
          36.314926
        ]
      },
      "id": "node/2278077919"
    },
    {
      "type": "Feature",
      "properties": {
        "@id": "node/2278078283",
        "amenity": "bank",
        "atm": "yes",
        "brand": "بانک ملت",
        "brand:en": "Bank Mellat",
        "brand:wikidata": "Q4855944",
        "brand:wikipedia": "en:Bank Mellat",
        "name": "بانک ملت",
        "name:en": "Bank Mellat"
      },
      "geometry": {
        "type": "Point",
        "coordinates": [
          59.4842352,
          36.3151292
        ]
      },
      "id": "node/2278078283"
    },
    {
      "type": "Feature",
      "properties": {
        "@id": "node/2278079536",
        "amenity": "bank",
        "atm": "yes",
        "brand": "بانک تجارت",
        "brand:wikidata": "Q7695198",
        "brand:wikipedia": "en:Tejarat Bank",
        "name": "بانک تجارت",
        "name:en": "Tejarat Bank"
      },
      "geometry": {
        "type": "Point",
        "coordinates": [
          59.4852656,
          36.3149346
        ]
      },
      "id": "node/2278079536"
    },
    {
      "type": "Feature",
      "properties": {
        "@id": "node/2278080162",
        "amenity": "bank",
        "atm": "yes",
        "brand": "بانک رفاه",
        "brand:en": "Refah Bank",
        "brand:wikidata": "Q7307083",
        "brand:wikipedia": "en:Refah Bank",
        "name": "بانک رفاه",
        "name:en": "Refah Bank"
      },
      "geometry": {
        "type": "Point",
        "coordinates": [
          59.4873362,
          36.3148655
        ]
      },
      "id": "node/2278080162"
    },
    {
      "type": "Feature",
      "properties": {
        "@id": "node/2278080723",
        "amenity": "bank",
        "atm": "yes",
        "brand": "بانک صادرات",
        "brand:en": "Bank Saderat Iran",
        "brand:wikidata": "Q2882608",
        "brand:wikipedia": "en:Bank Saderat Iran",
        "name": "بانک صادرات",
        "name:en": "Bank Saderat Iran"
      },
      "geometry": {
        "type": "Point",
        "coordinates": [
          59.4886881,
          36.314792
        ]
      },
      "id": "node/2278080723"
    },
    {
      "type": "Feature",
      "properties": {
        "@id": "node/2278081142",
        "amenity": "bank",
        "atm": "yes",
        "brand": "بانک ملی",
        "brand:en": "Bank Melli Iran",
        "brand:wikidata": "Q806640",
        "brand:wikipedia": "en:Bank Melli Iran",
        "name": "بانک ملی",
        "name:en": "Bank Melli Iran"
      },
      "geometry": {
        "type": "Point",
        "coordinates": [
          59.4890636,
          36.3147834
        ]
      },
      "id": "node/2278081142"
    },
    {
      "type": "Feature",
      "properties": {
        "@id": "node/2427124538",
        "amenity": "bank",
        "atm": "yes",
        "branch": "زیست خاور",
        "brand": "بانک تجارت",
        "brand:wikidata": "Q7695198",
        "brand:wikipedia": "en:Tejarat Bank",
        "name": "بانک تجارت",
        "operator": "Tejarat Bank"
      },
      "geometry": {
        "type": "Point",
        "coordinates": [
          59.5849209,
          36.2903887
        ]
      },
      "id": "node/2427124538"
    },
    {
      "type": "Feature",
      "properties": {
        "@id": "node/2427124542",
        "addr:street": "میدان حر",
        "amenity": "bank",
        "atm": "yes",
        "name": "داروخانه",
        "name:en": "pharmacy",
        "operator": "داروخانه آقای"
      },
      "geometry": {
        "type": "Point",
        "coordinates": [
          59.511653,
          36.305501
        ]
      },
      "id": "node/2427124542"
    },
    {
      "type": "Feature",
      "properties": {
        "@id": "node/2427124559",
        "amenity": "bank",
        "atm": "yes",
        "brand": "بانک سامان",
        "brand:en": "Saman Bank",
        "brand:wikidata": "Q4117676",
        "brand:wikipedia": "en:Saman Bank",
        "name": "بانک سامان",
        "name:en": "Saman Bank",
        "opening_hours": "Mo-We,Sa-Su 07:45-13:30,Th 07:30-12:30; PH closed",
        "operator": "Saman Bank"
      },
      "geometry": {
        "type": "Point",
        "coordinates": [
          59.5097865,
          36.3163855
        ]
      },
      "id": "node/2427124559"
    },
    {
      "type": "Feature",
      "properties": {
        "@id": "node/2427124564",
        "amenity": "bank",
        "atm": "yes",
        "branch": "میدان هنرستان",
        "brand": "بانک سپه",
        "brand:en": "Bank Sepah",
        "brand:wikidata": "Q2882624",
        "brand:wikipedia": "en:Bank Sepah",
        "name": "بانک سپه",
        "name:en": "Bank Sepah"
      },
      "geometry": {
        "type": "Point",
        "coordinates": [
          59.5044933,
          36.3104046
        ]
      },
      "id": "node/2427124564"
    },
    {
      "type": "Feature",
      "properties": {
        "@id": "node/2427124568",
        "amenity": "bank",
        "atm": "yes",
        "branch": "بلوار هاشمیه",
        "brand": "بانک سپه",
        "brand:en": "Bank Sepah",
        "brand:wikidata": "Q2882624",
        "brand:wikipedia": "en:Bank Sepah",
        "name": "بانک سپه",
        "name:en": "Bank Sepah",
        "opening_hours": "Mo-We,Sa-Su 07:30-13:30,Th 07:30-12:30; PH closed",
        "operator": "Sepah Bank"
      },
      "geometry": {
        "type": "Point",
        "coordinates": [
          59.5097261,
          36.3163166
        ]
      },
      "id": "node/2427124568"
    },
    {
      "type": "Feature",
      "properties": {
        "@id": "node/2427124576",
        "amenity": "bank",
        "atm": "yes",
        "branch": "میدان حر",
        "brand": "بانک صادرات",
        "brand:en": "Bank Saderat Iran",
        "brand:wikidata": "Q2882608",
        "brand:wikipedia": "en:Bank Saderat Iran",
        "name": "بانک صادرات",
        "name:en": "Bank Saderat Iran",
        "operator": "Saderat Bank"
      },
      "geometry": {
        "type": "Point",
        "coordinates": [
          59.5121397,
          36.3052498
        ]
      },
      "id": "node/2427124576"
    },
    {
      "type": "Feature",
      "properties": {
        "@id": "node/2427124580",
        "amenity": "bank",
        "atm": "yes",
        "branch": "میدان حر",
        "brand": "بانک ملت",
        "brand:en": "Bank Mellat",
        "brand:wikidata": "Q4855944",
        "brand:wikipedia": "en:Bank Mellat",
        "name": "بانک ملت",
        "name:en": "Bank Mellat",
        "operator": "Mellat Bank"
      },
      "geometry": {
        "type": "Point",
        "coordinates": [
          59.5107634,
          36.3059503
        ]
      },
      "id": "node/2427124580"
    },
    {
      "type": "Feature",
      "properties": {
        "@id": "node/2427124583",
        "amenity": "bank",
        "atm": "yes",
        "branch": "هاشمیه",
        "brand": "بانک ملت",
        "brand:en": "Bank Mellat",
        "brand:wikidata": "Q4855944",
        "brand:wikipedia": "en:Bank Mellat",
        "name": "بانک ملت",
        "name:en": "Bank Mellat",
        "opening_hours": "Sa-Th 07:30-14:00"
      },
      "geometry": {
        "type": "Point",
        "coordinates": [
          59.5104181,
          36.3170781
        ]
      },
      "id": "node/2427124583"
    },
    {
      "type": "Feature",
      "properties": {
        "@id": "node/2427124590",
        "amenity": "bank",
        "atm": "yes",
        "branch": "هاشمیه",
        "brand": "بانک پاسارگاد",
        "brand:en": "Bank Pasargad",
        "brand:wikidata": "Q4855962",
        "brand:wikipedia": "en:Bank Pasargad",
        "name": "بانک پاسارگاد",
        "name:en": "Bank Pasargad",
        "operator": "Pasargad Bank"
      },
      "geometry": {
        "type": "Point",
        "coordinates": [
          59.5065502,
          36.3127785
        ]
      },
      "id": "node/2427124590"
    },
    {
      "type": "Feature",
      "properties": {
        "@id": "node/2427124594",
        "amenity": "bank",
        "atm": "yes",
        "brand": "بانک آینده",
        "brand:en": "Ayandeh Bank",
        "brand:wikidata": "Q5938144",
        "brand:wikipedia": "en:Ayandeh Bank",
        "name": "بانک آینده",
        "name:en": "Ayandeh Bank",
        "opening_hours": "Mo-We,Sa-Su 07:30-13:30; Th 07:30-12:30; PH closed"
      },
      "geometry": {
        "type": "Point",
        "coordinates": [
          59.5096747,
          36.3162571
        ]
      },
      "id": "node/2427124594"
    },
    {
      "type": "Feature",
      "properties": {
        "@id": "node/2458533347",
        "amenity": "bank",
        "brand": "بانک قوامین",
        "brand:en": "Ghavamin Bank",
        "brand:wikidata": "Q10860253",
        "brand:wikipedia": "en:Ghavamin Bank",
        "name": "بانک قوامین",
        "name:en": "Ghavamin Bank"
      },
      "geometry": {
        "type": "Point",
        "coordinates": [
          59.5623696,
          36.3249053
        ]
      },
      "id": "node/2458533347"
    },
    {
      "type": "Feature",
      "properties": {
        "@id": "node/2458533606",
        "amenity": "bank",
        "name": "عسکریه"
      },
      "geometry": {
        "type": "Point",
        "coordinates": [
          59.5623936,
          36.3251159
        ]
      },
      "id": "node/2458533606"
    },
    {
      "type": "Feature",
      "properties": {
        "@id": "node/2482498670",
        "amenity": "bank",
        "atm": "no",
        "name": "موسسه مالی و اعتباری ثامن الحجج"
      },
      "geometry": {
        "type": "Point",
        "coordinates": [
          59.4962353,
          36.3608679
        ]
      },
      "id": "node/2482498670"
    },
    {
      "type": "Feature",
      "properties": {
        "@id": "node/2493167496",
        "amenity": "bank",
        "atm": "yes",
        "branch": "انقلاب اسلامی",
        "brand": "بانک صادرات",
        "brand:en": "Bank Saderat Iran",
        "brand:wikidata": "Q2882608",
        "brand:wikipedia": "en:Bank Saderat Iran",
        "name": "بانک صادرات",
        "name:en": "Bank Saderat Iran"
      },
      "geometry": {
        "type": "Point",
        "coordinates": [
          59.5911772,
          36.285588
        ]
      },
      "id": "node/2493167496"
    },
    {
      "type": "Feature",
      "properties": {
        "@id": "node/2493167497",
        "amenity": "bank",
        "atm": "yes",
        "branch": "چهارراه لشکر",
        "brand": "بانک صادرات",
        "brand:en": "Bank Saderat Iran",
        "brand:wikidata": "Q2882608",
        "brand:wikipedia": "en:Bank Saderat Iran",
        "name": "بانک صادرات",
        "name:en": "Bank Saderat Iran",
        "operator": "Saderat Bank"
      },
      "geometry": {
        "type": "Point",
        "coordinates": [
          59.595519,
          36.2819229
        ]
      },
      "id": "node/2493167497"
    },
    {
      "type": "Feature",
      "properties": {
        "@id": "node/2493167499",
        "amenity": "bank",
        "name": "پاسارگاد",
        "operator": "Pasargad Bank"
      },
      "geometry": {
        "type": "Point",
        "coordinates": [
          59.6040024,
          36.2910545
        ]
      },
      "id": "node/2493167499"
    },
    {
      "type": "Feature",
      "properties": {
        "@id": "node/2493167500",
        "amenity": "bank",
        "atm": "yes",
        "branch": "چهارراه لشکر",
        "brand": "بانک کشاورزی",
        "brand:en": "Bank Keshavarzi Iran",
        "brand:wikidata": "Q6395007",
        "brand:wikipedia": "en:Bank Keshavarzi Iran",
        "name": "بانک کشاورزی",
        "name:en": "Bank Keshavarzi Iran",
        "operator": "Keshavarzi Bank"
      },
      "geometry": {
        "type": "Point",
        "coordinates": [
          59.5970684,
          36.2802484
        ]
      },
      "id": "node/2493167500"
    },
    {
      "type": "Feature",
      "properties": {
        "@id": "node/2559089241",
        "amenity": "bank",
        "atm": "yes",
        "branch": "عبدالمطلب",
        "brand": "بانک ملی",
        "brand:en": "Bank Melli Iran",
        "brand:wikidata": "Q806640",
        "brand:wikipedia": "en:Bank Melli Iran",
        "name": "بانک ملی",
        "name:en": "Bank Melli Iran"
      },
      "geometry": {
        "type": "Point",
        "coordinates": [
          59.5990059,
          36.3243104
        ]
      },
      "id": "node/2559089241"
    },
    {
      "type": "Feature",
      "properties": {
        "@id": "node/2559089242",
        "amenity": "bank",
        "atm": "yes",
        "branch": "سمرقند",
        "brand": "بانک ملی",
        "brand:en": "Bank Melli Iran",
        "brand:wikidata": "Q806640",
        "brand:wikipedia": "en:Bank Melli Iran",
        "name": "بانک ملی",
        "name:en": "Bank Melli Iran"
      },
      "geometry": {
        "type": "Point",
        "coordinates": [
          59.6135672,
          36.3121725
        ]
      },
      "id": "node/2559089242"
    },
    {
      "type": "Feature",
      "properties": {
        "@id": "node/2559089243",
        "amenity": "bank",
        "atm": "yes",
        "branch": "فرامرز عباسی",
        "brand": "بانک سپه",
        "brand:en": "Bank Sepah",
        "brand:wikidata": "Q2882624",
        "brand:wikipedia": "en:Bank Sepah",
        "name": "بانک سپه",
        "name:en": "Bank Sepah"
      },
      "geometry": {
        "type": "Point",
        "coordinates": [
          59.5488795,
          36.3255727
        ]
      },
      "id": "node/2559089243"
    },
    {
      "type": "Feature",
      "properties": {
        "@id": "node/2559089244",
        "amenity": "bank",
        "atm": "yes",
        "branch": "کوهسنگی",
        "brand": "بانک سپه",
        "brand:en": "Bank Sepah",
        "brand:wikidata": "Q2882624",
        "brand:wikipedia": "en:Bank Sepah",
        "name": "بانک سپه",
        "name:en": "Bank Sepah",
        "operator": "Sepah Bank"
      },
      "geometry": {
        "type": "Point",
        "coordinates": [
          59.5797651,
          36.2891342
        ]
      },
      "id": "node/2559089244"
    },
    {
      "type": "Feature",
      "properties": {
        "@id": "node/2559089245",
        "amenity": "bank",
        "atm": "yes",
        "branch": "سمزقند",
        "brand": "بانک سپه",
        "brand:en": "Bank Sepah",
        "brand:wikidata": "Q2882624",
        "brand:wikipedia": "en:Bank Sepah",
        "name": "بانک سپه",
        "name:en": "Bank Sepah"
      },
      "geometry": {
        "type": "Point",
        "coordinates": [
          59.6192781,
          36.3198888
        ]
      },
      "id": "node/2559089245"
    },
    {
      "type": "Feature",
      "properties": {
        "@id": "node/2559089246",
        "amenity": "bank",
        "atm": "yes",
        "branch": "کوهسنگی",
        "brand": "بانک تجارت",
        "brand:wikidata": "Q7695198",
        "brand:wikipedia": "en:Tejarat Bank",
        "name": "بانک تجارت",
        "operator": "Tejarat Bank"
      },
      "geometry": {
        "type": "Point",
        "coordinates": [
          59.5783903,
          36.2886499
        ]
      },
      "id": "node/2559089246"
    },
    {
      "type": "Feature",
      "properties": {
        "@id": "node/2559089247",
        "amenity": "bank",
        "atm": "yes",
        "branch": "سمرقند",
        "brand": "بانک تجارت",
        "brand:wikidata": "Q7695198",
        "brand:wikipedia": "en:Tejarat Bank",
        "name": "بانک تجارت",
        "name:en": "Tejarat Bank"
      },
      "geometry": {
        "type": "Point",
        "coordinates": [
          59.6205129,
          36.3217441
        ]
      },
      "id": "node/2559089247"
    },
    {
      "type": "Feature",
      "properties": {
        "@id": "node/2631664551",
        "amenity": "bank",
        "name": "بانک سپه"
      },
      "geometry": {
        "type": "Point",
        "coordinates": [
          59.5201469,
          36.353771
        ]
      },
      "id": "node/2631664551"
    },
    {
      "type": "Feature",
      "properties": {
        "@id": "node/2682352411",
        "amenity": "bank",
        "atm": "yes",
        "brand": "بانک مسکن",
        "brand:en": "Bank Maskan",
        "brand:wikidata": "Q4855942",
        "brand:wikipedia": "en:Bank Maskan",
        "name": "بانک مسکن",
        "name:en": "Bank Maskan"
      },
      "geometry": {
        "type": "Point",
        "coordinates": [
          59.4783783,
          36.3158197
        ]
      },
      "id": "node/2682352411"
    },
    {
      "type": "Feature",
      "properties": {
        "@id": "node/2756422535",
        "amenity": "bank",
        "atm": "yes",
        "name": "بانک سپه"
      },
      "geometry": {
        "type": "Point",
        "coordinates": [
          59.5120073,
          36.3590104
        ]
      },
      "id": "node/2756422535"
    },
    {
      "type": "Feature",
      "properties": {
        "@id": "node/2756438719",
        "amenity": "bank",
        "atm": "yes",
        "name": "بانک ملی"
      },
      "geometry": {
        "type": "Point",
        "coordinates": [
          59.5177848,
          36.3582782
        ]
      },
      "id": "node/2756438719"
    },
    {
      "type": "Feature",
      "properties": {
        "@id": "node/2900631602",
        "amenity": "bank",
        "atm": "yes",
        "branch": "۱۵ خرداد",
        "brand": "بانک ملت",
        "brand:en": "Bank Mellat",
        "brand:wikidata": "Q4855944",
        "brand:wikipedia": "en:Bank Mellat",
        "name": "بانک ملت",
        "name:en": "Bank Mellat",
        "website": "https://www.bankmellat.ir"
      },
      "geometry": {
        "type": "Point",
        "coordinates": [
          59.5996642,
          36.2668103
        ]
      },
      "id": "node/2900631602"
    },
    {
      "type": "Feature",
      "properties": {
        "@id": "node/2900631603",
        "amenity": "bank",
        "atm": "yes",
        "brand": "بانک سرمایه",
        "brand:en": "Sarmayeh Bank",
        "brand:wikidata": "Q7424291",
        "brand:wikipedia": "en:Sarmayeh Bank",
        "name": "بانک سرمایه",
        "name:en": "Sarmayeh Bank"
      },
      "geometry": {
        "type": "Point",
        "coordinates": [
          59.5998037,
          36.2666979
        ]
      },
      "id": "node/2900631603"
    },
    {
      "type": "Feature",
      "properties": {
        "@id": "node/2987396683",
        "amenity": "bank",
        "atm": "yes",
        "brand": "بانک ملی",
        "brand:en": "Bank Melli Iran",
        "brand:wikidata": "Q806640",
        "brand:wikipedia": "en:Bank Melli Iran",
        "name": "بانک ملی",
        "name:en": "Bank Melli Iran"
      },
      "geometry": {
        "type": "Point",
        "coordinates": [
          59.6017556,
          36.2754482
        ]
      },
      "id": "node/2987396683"
    },
    {
      "type": "Feature",
      "properties": {
        "@id": "node/2987396705",
        "amenity": "bank",
        "atm": "yes",
        "brand": "بانک رفاه",
        "brand:en": "Refah Bank",
        "brand:wikidata": "Q7307083",
        "brand:wikipedia": "en:Refah Bank",
        "name": "بانک رفاه",
        "name:en": "Refah Bank"
      },
      "geometry": {
        "type": "Point",
        "coordinates": [
          59.6016268,
          36.2751973
        ]
      },
      "id": "node/2987396705"
    },
    {
      "type": "Feature",
      "properties": {
        "@id": "node/2987494033",
        "amenity": "bank",
        "atm": "yes",
        "brand": "بانک صادرات",
        "brand:en": "Bank Saderat Iran",
        "brand:wikidata": "Q2882608",
        "brand:wikipedia": "en:Bank Saderat Iran",
        "name": "بانک صادرات",
        "name:en": "Bank Saderat Iran"
      },
      "geometry": {
        "type": "Point",
        "coordinates": [
          59.6019013,
          36.2753688
        ]
      },
      "id": "node/2987494033"
    },
    {
      "type": "Feature",
      "properties": {
        "@id": "node/2989282187",
        "amenity": "bank",
        "atm": "yes",
        "brand": "بانک توسعه تعاون",
        "brand:wikidata": "Q5684450",
        "brand:wikipedia": "fa:بانک توسعه تعاون",
        "name": "بانک توسعه تعاون",
        "name:en": "Tose-e-Taavon"
      },
      "geometry": {
        "type": "Point",
        "coordinates": [
          59.5932341,
          36.2731689
        ]
      },
      "id": "node/2989282187"
    },
    {
      "type": "Feature",
      "properties": {
        "@id": "node/2989284039",
        "amenity": "bank",
        "atm": "yes",
        "name": "بانک اقتصاد نوین"
      },
      "geometry": {
        "type": "Point",
        "coordinates": [
          59.5929315,
          36.2758539
        ]
      },
      "id": "node/2989284039"
    },
    {
      "type": "Feature",
      "properties": {
        "@id": "node/2990420186",
        "amenity": "bank",
        "atm": "yes",
        "brand": "بانک مهر اقتصاد",
        "brand:wikidata": "Q5942921",
        "brand:wikipedia": "fa:بانک مهر اقتصاد",
        "name": "بانک مهر اقتصاد",
        "name:en": "Mehr Eqtesad Bank"
      },
      "geometry": {
        "type": "Point",
        "coordinates": [
          59.5971961,
          36.2691595
        ]
      },
      "id": "node/2990420186"
    },
    {
      "type": "Feature",
      "properties": {
        "@id": "node/2990420187",
        "amenity": "bank",
        "atm": "yes",
        "branch": "میدان ۱۵ خرداد",
        "brand": "بانک ملی",
        "brand:en": "Bank Melli Iran",
        "brand:wikidata": "Q806640",
        "brand:wikipedia": "en:Bank Melli Iran",
        "name": "بانک ملی",
        "name:en": "Bank Melli Iran"
      },
      "geometry": {
        "type": "Point",
        "coordinates": [
          59.5999861,
          36.2665119
        ]
      },
      "id": "node/2990420187"
    },
    {
      "type": "Feature",
      "properties": {
        "@id": "node/2990420189",
        "amenity": "bank",
        "atm": "yes",
        "brand": "بانک سینا",
        "brand:en": "Sina Bank",
        "brand:wikidata": "Q10860246",
        "brand:wikipedia": "en:Sina Bank",
        "name": "بانک سینا",
        "name:en": "Sina Bank"
      },
      "geometry": {
        "type": "Point",
        "coordinates": [
          59.5999542,
          36.2677205
        ]
      },
      "id": "node/2990420189"
    },
    {
      "type": "Feature",
      "properties": {
        "@id": "node/2990420190",
        "amenity": "bank",
        "atm": "yes",
        "brand": "بانک کشاورزی",
        "brand:en": "Bank Keshavarzi Iran",
        "brand:wikidata": "Q6395007",
        "brand:wikipedia": "en:Bank Keshavarzi Iran",
        "name": "بانک کشاورزی",
        "name:en": "Bank Keshavarzi Iran"
      },
      "geometry": {
        "type": "Point",
        "coordinates": [
          59.597321,
          36.2690738
        ]
      },
      "id": "node/2990420190"
    },
    {
      "type": "Feature",
      "properties": {
        "@id": "node/2990878923",
        "amenity": "bank",
        "atm": "yes",
        "brand": "بانک صادرات",
        "brand:en": "Bank Saderat Iran",
        "brand:wikidata": "Q2882608",
        "brand:wikipedia": "en:Bank Saderat Iran",
        "name": "بانک صادرات",
        "name:en": "Bank Saderat Iran"
      },
      "geometry": {
        "type": "Point",
        "coordinates": [
          59.5909464,
          36.27375
        ]
      },
      "id": "node/2990878923"
    },
    {
      "type": "Feature",
      "properties": {
        "@id": "node/2990880435",
        "amenity": "bank",
        "atm": "yes",
        "name": "بانک قوامین"
      },
      "geometry": {
        "type": "Point",
        "coordinates": [
          59.5933162,
          36.2766603
        ]
      },
      "id": "node/2990880435"
    },
    {
      "type": "Feature",
      "properties": {
        "@id": "node/2991275181",
        "amenity": "bank",
        "brand": "بانک مهر اقتصاد",
        "brand:wikidata": "Q5942921",
        "brand:wikipedia": "fa:بانک مهر اقتصاد",
        "name": "بانک مهر اقتصاد",
        "name:en": "Mehr Eqtesad Bank"
      },
      "geometry": {
        "type": "Point",
        "coordinates": [
          59.6026562,
          36.2730666
        ]
      },
      "id": "node/2991275181"
    },
    {
      "type": "Feature",
      "properties": {
        "@id": "node/2991275314",
        "amenity": "bank",
        "name": "بانک کشاورزی"
      },
      "geometry": {
        "type": "Point",
        "coordinates": [
          59.6072311,
          36.2777089
        ]
      },
      "id": "node/2991275314"
    },
    {
      "type": "Feature",
      "properties": {
        "@id": "node/2991275316",
        "amenity": "bank",
        "brand": "بانک سینا",
        "brand:en": "Sina Bank",
        "brand:wikidata": "Q10860246",
        "brand:wikipedia": "en:Sina Bank",
        "name": "بانک سینا",
        "name:en": "Sina Bank"
      },
      "geometry": {
        "type": "Point",
        "coordinates": [
          59.6083166,
          36.2789836
        ]
      },
      "id": "node/2991275316"
    },
    {
      "type": "Feature",
      "properties": {
        "@id": "node/2991275319",
        "amenity": "bank",
        "atm": "yes",
        "brand": "بانک اقتصاد نوین",
        "brand:en": "EN Bank",
        "brand:wikidata": "Q5323768",
        "brand:wikipedia": "en:EN Bank",
        "name": "بانک اقتصاد نوین",
        "name:en": "EN Bank"
      },
      "geometry": {
        "type": "Point",
        "coordinates": [
          59.6086928,
          36.2801617
        ]
      },
      "id": "node/2991275319"
    },
    {
      "type": "Feature",
      "properties": {
        "@id": "node/2991275735",
        "amenity": "bank",
        "brand": "بانک ملی",
        "brand:en": "Bank Melli Iran",
        "brand:wikidata": "Q806640",
        "brand:wikipedia": "en:Bank Melli Iran",
        "name": "بانک ملی",
        "name:en": "Bank Melli Iran"
      },
      "geometry": {
        "type": "Point",
        "coordinates": [
          59.6041879,
          36.274305
        ]
      },
      "id": "node/2991275735"
    },
    {
      "type": "Feature",
      "properties": {
        "@id": "node/2992608753",
        "amenity": "bank",
        "atm": "yes",
        "branch": "خیابان بهار (شهید بهشتی)",
        "name": "بانک حکمت ایرانیان"
      },
      "geometry": {
        "type": "Point",
        "coordinates": [
          59.5993395,
          36.278013
        ]
      },
      "id": "node/2992608753"
    },
    {
      "type": "Feature",
      "properties": {
        "@id": "node/2992608754",
        "amenity": "bank",
        "brand": "بانک مسکن",
        "brand:en": "Bank Maskan",
        "brand:wikidata": "Q4855942",
        "brand:wikipedia": "en:Bank Maskan",
        "name": "بانک مسکن",
        "name:en": "Bank Maskan"
      },
      "geometry": {
        "type": "Point",
        "coordinates": [
          59.5989752,
          36.2778748
        ]
      },
      "id": "node/2992608754"
    },
    {
      "type": "Feature",
      "properties": {
        "@id": "node/2992609154",
        "amenity": "bank",
        "brand": "بانک انصار",
        "brand:wikidata": "Q5862675",
        "brand:wikipedia": "fa:بانک انصار",
        "name": "بانک انصار"
      },
      "geometry": {
        "type": "Point",
        "coordinates": [
          59.604091,
          36.2726507
        ]
      },
      "id": "node/2992609154"
    },
    {
      "type": "Feature",
      "properties": {
        "@id": "node/2994086548",
        "amenity": "bank",
        "brand": "بانک صادرات",
        "brand:en": "Bank Saderat Iran",
        "brand:wikidata": "Q2882608",
        "brand:wikipedia": "en:Bank Saderat Iran",
        "name": "بانک صادرات",
        "name:en": "Bank Saderat Iran"
      },
      "geometry": {
        "type": "Point",
        "coordinates": [
          59.6040245,
          36.2746707
        ]
      },
      "id": "node/2994086548"
    },
    {
      "type": "Feature",
      "properties": {
        "@id": "node/2994086549",
        "amenity": "bank",
        "name": "بانک ملت"
      },
      "geometry": {
        "type": "Point",
        "coordinates": [
          59.6078058,
          36.2782979
        ]
      },
      "id": "node/2994086549"
    },
    {
      "type": "Feature",
      "properties": {
        "@id": "node/2994086560",
        "amenity": "bank",
        "name": "بانک ملی"
      },
      "geometry": {
        "type": "Point",
        "coordinates": [
          59.6048146,
          36.2755667
        ]
      },
      "id": "node/2994086560"
    },
    {
      "type": "Feature",
      "properties": {
        "@id": "node/2994086561",
        "amenity": "bank",
        "name": "بانک سپه"
      },
      "geometry": {
        "type": "Point",
        "coordinates": [
          59.6049436,
          36.2757042
        ]
      },
      "id": "node/2994086561"
    },
    {
      "type": "Feature",
      "properties": {
        "@id": "node/2994094046",
        "amenity": "bank",
        "brand": "بانک تجارت",
        "brand:wikidata": "Q7695198",
        "brand:wikipedia": "en:Tejarat Bank",
        "name": "بانک تجارت"
      },
      "geometry": {
        "type": "Point",
        "coordinates": [
          59.6117415,
          36.2829682
        ]
      },
      "id": "node/2994094046"
    },
    {
      "type": "Feature",
      "properties": {
        "@id": "node/2994110631",
        "amenity": "bank",
        "brand": "بانک سپه",
        "brand:en": "Bank Sepah",
        "brand:wikidata": "Q2882624",
        "brand:wikipedia": "en:Bank Sepah",
        "name": "بانک سپه",
        "name:en": "Bank Sepah"
      },
      "geometry": {
        "type": "Point",
        "coordinates": [
          59.6000028,
          36.2692608
        ]
      },
      "id": "node/2994110631"
    },
    {
      "type": "Feature",
      "properties": {
        "@id": "node/2994116022",
        "amenity": "bank",
        "atm": "yes",
        "brand": "بانک صادرات",
        "brand:en": "Bank Saderat Iran",
        "brand:wikidata": "Q2882608",
        "brand:wikipedia": "en:Bank Saderat Iran",
        "name": "بانک صادرات",
        "name:en": "Bank Saderat Iran"
      },
      "geometry": {
        "type": "Point",
        "coordinates": [
          59.6074834,
          36.2788143
        ]
      },
      "id": "node/2994116022"
    },
    {
      "type": "Feature",
      "properties": {
        "@id": "node/2994117416",
        "amenity": "bank",
        "brand": "بانک مسکن",
        "brand:en": "Bank Maskan",
        "brand:wikidata": "Q4855942",
        "brand:wikipedia": "en:Bank Maskan",
        "name": "بانک مسکن",
        "name:en": "Bank Maskan"
      },
      "geometry": {
        "type": "Point",
        "coordinates": [
          59.6097203,
          36.2813632
        ]
      },
      "id": "node/2994117416"
    },
    {
      "type": "Feature",
      "properties": {
        "@id": "node/2994117417",
        "amenity": "bank",
        "brand": "بانک ایران زمین",
        "brand:wikidata": "Q5934423",
        "brand:wikipedia": "en:Iran Zamin Bank",
        "name": "بانک ایران زمین"
      },
      "geometry": {
        "type": "Point",
        "coordinates": [
          59.6098513,
          36.2814911
        ]
      },
      "id": "node/2994117417"
    },
    {
      "type": "Feature",
      "properties": {
        "@id": "node/3002597655",
        "amenity": "bank",
        "atm": "yes",
        "brand": "بانک صادرات",
        "brand:en": "Bank Saderat Iran",
        "brand:wikidata": "Q2882608",
        "brand:wikipedia": "en:Bank Saderat Iran",
        "name": "بانک صادرات",
        "name:en": "Bank Saderat Iran"
      },
      "geometry": {
        "type": "Point",
        "coordinates": [
          59.610627,
          36.2939767
        ]
      },
      "id": "node/3002597655"
    },
    {
      "type": "Feature",
      "properties": {
        "@id": "node/3002597656",
        "amenity": "bank",
        "atm": "yes",
        "branch": "بهجت",
        "brand": "بانک ملی",
        "brand:en": "Bank Melli Iran",
        "brand:wikidata": "Q806640",
        "brand:wikipedia": "en:Bank Melli Iran",
        "name": "بانک ملی",
        "name:en": "Bank Melli Iran",
        "operator": "بانک ملی",
        "wheelchair": "yes"
      },
      "geometry": {
        "type": "Point",
        "coordinates": [
          59.6112476,
          36.2944595
        ]
      },
      "id": "node/3002597656"
    },
    {
      "type": "Feature",
      "properties": {
        "@id": "node/3046351812",
        "amenity": "bank",
        "atm": "yes",
        "branch": "طوس",
        "brand": "بانک کشاورزی",
        "brand:en": "Bank Keshavarzi Iran",
        "brand:wikidata": "Q6395007",
        "brand:wikipedia": "en:Bank Keshavarzi Iran",
        "name": "بانک کشاورزی",
        "name:en": "Bank Keshavarzi Iran"
      },
      "geometry": {
        "type": "Point",
        "coordinates": [
          59.5363288,
          36.3673197
        ]
      },
      "id": "node/3046351812"
    },
    {
      "type": "Feature",
      "properties": {
        "@id": "node/3059450811",
        "amenity": "bank",
        "brand": "بانک صادرات",
        "brand:en": "Bank Saderat Iran",
        "brand:wikidata": "Q2882608",
        "brand:wikipedia": "en:Bank Saderat Iran",
        "name": "بانک صادرات",
        "name:ar": "مطبعة كارتات واعلانات",
        "name:en": "Bank Saderat Iran"
      },
      "geometry": {
        "type": "Point",
        "coordinates": [
          59.6062606,
          36.2911546
        ]
      },
      "id": "node/3059450811"
    },
    {
      "type": "Feature",
      "properties": {
        "@id": "node/3059451489",
        "amenity": "bank",
        "atm": "yes",
        "brand": "بانک مسکن",
        "brand:en": "Bank Maskan",
        "brand:wikidata": "Q4855942",
        "brand:wikipedia": "en:Bank Maskan",
        "name": "بانک مسکن",
        "name:en": "Bank Maskan"
      },
      "geometry": {
        "type": "Point",
        "coordinates": [
          59.6107244,
          36.2941619
        ]
      },
      "id": "node/3059451489"
    },
    {
      "type": "Feature",
      "properties": {
        "@id": "node/3059453916",
        "amenity": "bank",
        "branch": "چهارراه گلستان کد ۱۶۲۹",
        "brand": "بانک صادرات",
        "brand:en": "Bank Saderat Iran",
        "brand:wikidata": "Q2882608",
        "brand:wikipedia": "en:Bank Saderat Iran",
        "name": "بانک صادرات",
        "name:en": "Bank Saderat Iran"
      },
      "geometry": {
        "type": "Point",
        "coordinates": [
          59.5914889,
          36.2927977
        ]
      },
      "id": "node/3059453916"
    },
    {
      "type": "Feature",
      "properties": {
        "@id": "node/3059454269",
        "amenity": "bank",
        "brand": "بانک آینده",
        "brand:en": "Ayandeh Bank",
        "brand:wikidata": "Q5938144",
        "brand:wikipedia": "en:Ayandeh Bank",
        "name": "بانک آینده",
        "name:en": "Ayandeh Bank"
      },
      "geometry": {
        "type": "Point",
        "coordinates": [
          59.5961435,
          36.2818421
        ]
      },
      "id": "node/3059454269"
    },
    {
      "type": "Feature",
      "properties": {
        "@id": "node/3059454270",
        "amenity": "bank",
        "branch": "عدل خمینی",
        "brand": "بانک رفاه",
        "brand:en": "Refah Bank",
        "brand:wikidata": "Q7307083",
        "brand:wikipedia": "en:Refah Bank",
        "name": "بانک رفاه",
        "name:en": "Refah Bank"
      },
      "geometry": {
        "type": "Point",
        "coordinates": [
          59.594218,
          36.2789397
        ]
      },
      "id": "node/3059454270"
    },
    {
      "type": "Feature",
      "properties": {
        "@id": "node/3071566094",
        "amenity": "bank",
        "brand": "بانک قوامین",
        "brand:en": "Ghavamin Bank",
        "brand:wikidata": "Q10860253",
        "brand:wikipedia": "en:Ghavamin Bank",
        "name": "بانک قوامین",
        "name:en": "Ghavamin Bank"
      },
      "geometry": {
        "type": "Point",
        "coordinates": [
          59.5950376,
          36.2942605
        ]
      },
      "id": "node/3071566094"
    },
    {
      "type": "Feature",
      "properties": {
        "@id": "node/3071566096",
        "amenity": "bank",
        "atm": "yes",
        "branch": "چمران",
        "brand": "بانک رفاه",
        "brand:en": "Refah Bank",
        "brand:wikidata": "Q7307083",
        "brand:wikipedia": "en:Refah Bank",
        "name": "بانک رفاه",
        "name:en": "Refah Bank"
      },
      "geometry": {
        "type": "Point",
        "coordinates": [
          59.5951497,
          36.291726
        ]
      },
      "id": "node/3071566096"
    },
    {
      "type": "Feature",
      "properties": {
        "@id": "node/3071566098",
        "amenity": "bank",
        "atm": "yes",
        "branch": "مرکزی کد ۱۱۱۲",
        "brand": "بانک مسکن",
        "brand:en": "Bank Maskan",
        "brand:wikidata": "Q4855942",
        "brand:wikipedia": "en:Bank Maskan",
        "name": "بانک مسکن",
        "name:en": "Bank Maskan",
        "operator": "Maskan Bank"
      },
      "geometry": {
        "type": "Point",
        "coordinates": [
          59.5972465,
          36.2934268
        ]
      },
      "id": "node/3071566098"
    },
    {
      "type": "Feature",
      "properties": {
        "@id": "node/3071566099",
        "amenity": "bank",
        "branch": "جنت شاخص ۱۵۷",
        "brand": "بانک سپه",
        "brand:en": "Bank Sepah",
        "brand:wikidata": "Q2882624",
        "brand:wikipedia": "en:Bank Sepah",
        "name": "بانک سپه",
        "name:en": "Bank Sepah"
      },
      "geometry": {
        "type": "Point",
        "coordinates": [
          59.6005226,
          36.2905157
        ]
      },
      "id": "node/3071566099"
    },
    {
      "type": "Feature",
      "properties": {
        "@id": "node/3074635619",
        "amenity": "bank",
        "name": "بانک گردشگری",
        "name:en": "Gardeshgari Bank"
      },
      "geometry": {
        "type": "Point",
        "coordinates": [
          59.5699871,
          36.3005326
        ]
      },
      "id": "node/3074635619"
    },
    {
      "type": "Feature",
      "properties": {
        "@id": "node/3074635620",
        "amenity": "bank",
        "brand": "بانک صادرات",
        "brand:en": "Bank Saderat Iran",
        "brand:wikidata": "Q2882608",
        "brand:wikipedia": "en:Bank Saderat Iran",
        "name": "بانک صادرات",
        "name:en": "Bank Saderat Iran"
      },
      "geometry": {
        "type": "Point",
        "coordinates": [
          59.5698886,
          36.3008582
        ]
      },
      "id": "node/3074635620"
    },
    {
      "type": "Feature",
      "properties": {
        "@id": "node/3074637796",
        "amenity": "bank",
        "branch": "احمد آباد",
        "brand": "بانک قوامین",
        "brand:en": "Ghavamin Bank",
        "brand:wikidata": "Q10860253",
        "brand:wikipedia": "en:Ghavamin Bank",
        "name": "بانک قوامین",
        "name:en": "Ghavamin Bank"
      },
      "geometry": {
        "type": "Point",
        "coordinates": [
          59.5764871,
          36.2954177
        ]
      },
      "id": "node/3074637796"
    },
    {
      "type": "Feature",
      "properties": {
        "@id": "node/3074637797",
        "amenity": "bank",
        "branch": "احمد آباد کد ۲۰۳۹",
        "brand": "بانک انصار",
        "brand:wikidata": "Q5862675",
        "brand:wikipedia": "fa:بانک انصار",
        "name": "بانک انصار"
      },
      "geometry": {
        "type": "Point",
        "coordinates": [
          59.570388,
          36.298195
        ]
      },
      "id": "node/3074637797"
    },
    {
      "type": "Feature",
      "properties": {
        "@id": "node/3079734445",
        "addr:street": "امام خمینی",
        "amenity": "bank",
        "name": "بانک تجارت",
        "name:ar": "مركز تصريف عملات مركزي",
        "name:en": "Bank Tejarat"
      },
      "geometry": {
        "type": "Point",
        "coordinates": [
          59.6009597,
          36.2892123
        ]
      },
      "id": "node/3079734445"
    },
    {
      "type": "Feature",
      "properties": {
        "@id": "node/3079738056",
        "amenity": "bank",
        "branch": "امام خمینی ره",
        "brand": "بانک مهر اقتصاد",
        "brand:wikidata": "Q5942921",
        "brand:wikipedia": "fa:بانک مهر اقتصاد",
        "name": "بانک مهر اقتصاد",
        "name:en": "Mehr Eqtesad Bank"
      },
      "geometry": {
        "type": "Point",
        "coordinates": [
          59.6011404,
          36.2901872
        ]
      },
      "id": "node/3079738056"
    },
    {
      "type": "Feature",
      "properties": {
        "@id": "node/3079738060",
        "amenity": "bank",
        "brand": "بانک پاسارگاد",
        "brand:en": "Bank Pasargad",
        "brand:wikidata": "Q4855962",
        "brand:wikipedia": "en:Bank Pasargad",
        "name": "بانک پاسارگاد",
        "name:en": "Bank Pasargad"
      },
      "geometry": {
        "type": "Point",
        "coordinates": [
          59.6040019,
          36.2914117
        ]
      },
      "id": "node/3079738060"
    },
    {
      "type": "Feature",
      "properties": {
        "@id": "node/3079738061",
        "amenity": "bank",
        "brand": "بانک تجارت",
        "brand:wikidata": "Q7695198",
        "brand:wikipedia": "en:Tejarat Bank",
        "name": "بانک تجارت"
      },
      "geometry": {
        "type": "Point",
        "coordinates": [
          59.6017318,
          36.2911972
        ]
      },
      "id": "node/3079738061"
    },
    {
      "type": "Feature",
      "properties": {
        "@id": "node/3079738210",
        "amenity": "bank",
        "branch": "چهارراه لشگر",
        "brand": "بانک تجارت",
        "brand:wikidata": "Q7695198",
        "brand:wikipedia": "en:Tejarat Bank",
        "name": "بانک تجارت"
      },
      "geometry": {
        "type": "Point",
        "coordinates": [
          59.5963268,
          36.2817596
        ]
      },
      "id": "node/3079738210"
    },
    {
      "type": "Feature",
      "properties": {
        "@id": "node/3179634068",
        "amenity": "bank",
        "atm": "yes",
        "branch": "بولوار ابوطالب",
        "brand": "بانک سپه",
        "brand:en": "Bank Sepah",
        "brand:wikidata": "Q2882624",
        "brand:wikipedia": "en:Bank Sepah",
        "name": "بانک سپه",
        "name:en": "Bank Sepah"
      },
      "geometry": {
        "type": "Point",
        "coordinates": [
          59.5946696,
          36.3250097
        ]
      },
      "id": "node/3179634068"
    },
    {
      "type": "Feature",
      "properties": {
        "@id": "node/3203898576",
        "amenity": "bank",
        "atm": "yes",
        "branch": "فلسطین",
        "brand": "بانک رفاه",
        "brand:en": "Refah Bank",
        "brand:wikidata": "Q7307083",
        "brand:wikipedia": "en:Refah Bank",
        "name": "بانک رفاه",
        "name:en": "Refah Bank",
        "operator": "Refah"
      },
      "geometry": {
        "type": "Point",
        "coordinates": [
          59.5684206,
          36.3065467
        ]
      },
      "id": "node/3203898576"
    },
    {
      "type": "Feature",
      "properties": {
        "@id": "node/3203898612",
        "amenity": "bank",
        "atm": "yes",
        "branch": "بهشت",
        "brand": "بانک رفاه",
        "brand:en": "Refah Bank",
        "brand:wikidata": "Q7307083",
        "brand:wikipedia": "en:Refah Bank",
        "name": "بانک رفاه",
        "name:en": "Refah Bank"
      },
      "geometry": {
        "type": "Point",
        "coordinates": [
          59.5837317,
          36.292783
        ]
      },
      "id": "node/3203898612"
    },
    {
      "type": "Feature",
      "properties": {
        "@id": "node/3203898613",
        "amenity": "bank",
        "branch": "بیمارستان قائم",
        "brand": "بانک رفاه",
        "brand:en": "Refah Bank",
        "brand:wikidata": "Q7307083",
        "brand:wikipedia": "en:Refah Bank",
        "name": "بانک رفاه",
        "name:en": "Refah Bank"
      },
      "geometry": {
        "type": "Point",
        "coordinates": [
          59.5835525,
          36.2916851
        ]
      },
      "id": "node/3203898613"
    },
    {
      "type": "Feature",
      "properties": {
        "@id": "node/3203898614",
        "amenity": "bank",
        "atm": "yes",
        "branch": "دستغیب",
        "brand": "بانک رفاه",
        "brand:en": "Refah Bank",
        "brand:wikidata": "Q7307083",
        "brand:wikipedia": "en:Refah Bank",
        "name": "بانک رفاه",
        "name:en": "Refah Bank",
        "opening_hours": "Sa-Th 06:30-13:30",
        "operator": "Refah",
        "wheelchair": "yes"
      },
      "geometry": {
        "type": "Point",
        "coordinates": [
          59.5692319,
          36.3086591
        ]
      },
      "id": "node/3203898614"
    },
    {
      "type": "Feature",
      "properties": {
        "@id": "node/3203898615",
        "amenity": "bank",
        "atm": "yes",
        "branch": "سناباد",
        "brand": "بانک رفاه",
        "brand:en": "Refah Bank",
        "brand:wikidata": "Q7307083",
        "brand:wikipedia": "en:Refah Bank",
        "name": "بانک رفاه",
        "name:en": "Refah Bank"
      },
      "geometry": {
        "type": "Point",
        "coordinates": [
          59.5931614,
          36.2976612
        ]
      },
      "id": "node/3203898615"
    },
    {
      "type": "Feature",
      "properties": {
        "@id": "node/3203898616",
        "amenity": "bank",
        "atm": "yes",
        "branch": "چهارراه دکترا",
        "brand": "بانک رفاه",
        "brand:en": "Refah Bank",
        "brand:wikidata": "Q7307083",
        "brand:wikipedia": "en:Refah Bank",
        "name": "بانک رفاه",
        "name:en": "Refah Bank"
      },
      "geometry": {
        "type": "Point",
        "coordinates": [
          59.5894001,
          36.2938997
        ]
      },
      "id": "node/3203898616"
    },
    {
      "type": "Feature",
      "properties": {
        "@id": "node/3203898617",
        "amenity": "bank",
        "atm": "yes",
        "branch": "کوهسنگی",
        "brand": "بانک رفاه",
        "brand:en": "Refah Bank",
        "brand:wikidata": "Q7307083",
        "brand:wikipedia": "en:Refah Bank",
        "name": "بانک رفاه",
        "name:en": "Refah Bank",
        "operator": "Refah"
      },
      "geometry": {
        "type": "Point",
        "coordinates": [
          59.5653862,
          36.28372
        ]
      },
      "id": "node/3203898617"
    },
    {
      "type": "Feature",
      "properties": {
        "@id": "node/3294177314",
        "amenity": "bank",
        "brand": "بانک صادرات",
        "brand:en": "Bank Saderat Iran",
        "brand:wikidata": "Q2882608",
        "brand:wikipedia": "en:Bank Saderat Iran",
        "name": "بانک صادرات",
        "name:en": "Bank Saderat Iran"
      },
      "geometry": {
        "type": "Point",
        "coordinates": [
          59.608635,
          36.3030517
        ]
      },
      "id": "node/3294177314"
    },
    {
      "type": "Feature",
      "properties": {
        "@id": "node/3316899443",
        "amenity": "bank",
        "brand": "بانک سپه",
        "brand:en": "Bank Sepah",
        "brand:wikidata": "Q2882624",
        "brand:wikipedia": "en:Bank Sepah",
        "name": "بانک سپه",
        "name:en": "Bank Sepah"
      },
      "geometry": {
        "type": "Point",
        "coordinates": [
          59.6098202,
          36.3026243
        ]
      },
      "id": "node/3316899443"
    },
    {
      "type": "Feature",
      "properties": {
        "@id": "node/3316899444",
        "amenity": "bank",
        "brand": "بانک ملت",
        "brand:en": "Bank Mellat",
        "brand:wikidata": "Q4855944",
        "brand:wikipedia": "en:Bank Mellat",
        "name": "بانک ملت",
        "name:en": "Bank Mellat"
      },
      "geometry": {
        "type": "Point",
        "coordinates": [
          59.6098742,
          36.3030286
        ]
      },
      "id": "node/3316899444"
    },
    {
      "type": "Feature",
      "properties": {
        "@id": "node/3316899445",
        "amenity": "bank",
        "atm": "yes",
        "brand": "بانک ملی",
        "brand:en": "Bank Melli Iran",
        "brand:wikidata": "Q806640",
        "brand:wikipedia": "en:Bank Melli Iran",
        "name": "بانک ملی",
        "name:en": "Bank Melli Iran"
      },
      "geometry": {
        "type": "Point",
        "coordinates": [
          59.6073202,
          36.3003344
        ]
      },
      "id": "node/3316899445"
    },
    {
      "type": "Feature",
      "properties": {
        "@id": "node/3316924185",
        "amenity": "bank"
      },
      "geometry": {
        "type": "Point",
        "coordinates": [
          59.6047829,
          36.2985855
        ]
      },
      "id": "node/3316924185"
    },
    {
      "type": "Feature",
      "properties": {
        "@id": "node/3416903469",
        "amenity": "bank",
        "brand": "بانک صادرات",
        "brand:en": "Bank Saderat Iran",
        "brand:wikidata": "Q2882608",
        "brand:wikipedia": "en:Bank Saderat Iran",
        "name": "بانک صادرات",
        "name:en": "Bank Saderat Iran"
      },
      "geometry": {
        "type": "Point",
        "coordinates": [
          59.6051728,
          36.2619477
        ]
      },
      "id": "node/3416903469"
    },
    {
      "type": "Feature",
      "properties": {
        "@id": "node/3416903470",
        "amenity": "bank",
        "brand": "بانک سپه",
        "brand:en": "Bank Sepah",
        "brand:wikidata": "Q2882624",
        "brand:wikipedia": "en:Bank Sepah",
        "name": "بانک سپه",
        "name:en": "Bank Sepah"
      },
      "geometry": {
        "type": "Point",
        "coordinates": [
          59.6048391,
          36.2624047
        ]
      },
      "id": "node/3416903470"
    },
    {
      "type": "Feature",
      "properties": {
        "@id": "node/3416907373",
        "amenity": "bank",
        "brand": "بانک ایران زمین",
        "brand:wikidata": "Q5934423",
        "brand:wikipedia": "en:Iran Zamin Bank",
        "name": "بانک ایران زمین"
      },
      "geometry": {
        "type": "Point",
        "coordinates": [
          59.6052985,
          36.2618516
        ]
      },
      "id": "node/3416907373"
    },
    {
      "type": "Feature",
      "properties": {
        "@id": "node/3420876593",
        "amenity": "bank",
        "name": "موسسه عسگریه"
      },
      "geometry": {
        "type": "Point",
        "coordinates": [
          59.6402121,
          36.2987675
        ]
      },
      "id": "node/3420876593"
    },
    {
      "type": "Feature",
      "properties": {
        "@id": "node/3421286705",
        "amenity": "bank"
      },
      "geometry": {
        "type": "Point",
        "coordinates": [
          59.6377981,
          36.2968354
        ]
      },
      "id": "node/3421286705"
    },
    {
      "type": "Feature",
      "properties": {
        "@id": "node/3422065093",
        "amenity": "bank",
        "name": "بانک رفاه کارگران"
      },
      "geometry": {
        "type": "Point",
        "coordinates": [
          59.6436183,
          36.3006447
        ]
      },
      "id": "node/3422065093"
    },
    {
      "type": "Feature",
      "properties": {
        "@id": "node/3424491832",
        "amenity": "bank",
        "name": "مؤسسه اعتباری رضوی"
      },
      "geometry": {
        "type": "Point",
        "coordinates": [
          59.6089507,
          36.2928194
        ]
      },
      "id": "node/3424491832"
    },
    {
      "type": "Feature",
      "properties": {
        "@id": "node/3491786100",
        "amenity": "bank",
        "atm": "yes",
        "branch": "میدان شهدا",
        "brand": "بانک شهر",
        "brand:en": "Shahr Bank",
        "brand:wikidata": "Q5941033",
        "brand:wikipedia": "fa:بانک شهر",
        "name": "بانک شهر",
        "name:en": "Shahr Bank",
        "opening_hours": "07:30-13:30",
        "operator": "شهرداری مشهد",
        "wheelchair": "yes"
      },
      "geometry": {
        "type": "Point",
        "coordinates": [
          59.6056301,
          36.29869
        ]
      },
      "id": "node/3491786100"
    },
    {
      "type": "Feature",
      "properties": {
        "@id": "node/3698775792",
        "amenity": "bank",
        "branch": "صداوسیما",
        "brand": "بانک تجارت",
        "brand:wikidata": "Q7695198",
        "brand:wikipedia": "en:Tejarat Bank",
        "name": "بانک تجارت",
        "name:en": "Tejarat Bank"
      },
      "geometry": {
        "type": "Point",
        "coordinates": [
          59.5558087,
          36.2895786
        ]
      },
      "id": "node/3698775792"
    },
    {
      "type": "Feature",
      "properties": {
        "@id": "node/3750584437",
        "amenity": "bank",
        "brand": "بانک صادرات",
        "brand:en": "Bank Saderat Iran",
        "brand:wikidata": "Q2882608",
        "brand:wikipedia": "en:Bank Saderat Iran",
        "name": "بانک صادرات",
        "name:en": "Bank Saderat Iran"
      },
      "geometry": {
        "type": "Point",
        "coordinates": [
          59.6074968,
          36.2789301
        ]
      },
      "id": "node/3750584437"
    },
    {
      "type": "Feature",
      "properties": {
        "@id": "node/3750930121",
        "amenity": "bank",
        "name": "بانک ملت",
        "name:en": "Mellat bank"
      },
      "geometry": {
        "type": "Point",
        "coordinates": [
          59.6334189,
          36.2725188
        ]
      },
      "id": "node/3750930121"
    },
    {
      "type": "Feature",
      "properties": {
        "@id": "node/3807170523",
        "amenity": "bank",
        "atm": "yes",
        "brand": "بانک تجارت",
        "brand:wikidata": "Q7695198",
        "brand:wikipedia": "en:Tejarat Bank",
        "name": "بانک تجارت",
        "name:en": "Tejarat Bank"
      },
      "geometry": {
        "type": "Point",
        "coordinates": [
          59.5306173,
          36.3038867
        ]
      },
      "id": "node/3807170523"
    },
    {
      "type": "Feature",
      "properties": {
        "@id": "node/3807170524",
        "amenity": "bank",
        "atm": "yes",
        "brand": "بانک ملی",
        "brand:en": "Bank Melli Iran",
        "brand:wikidata": "Q806640",
        "brand:wikipedia": "en:Bank Melli Iran",
        "name": "بانک ملی",
        "name:en": "Bank Melli Iran"
      },
      "geometry": {
        "type": "Point",
        "coordinates": [
          59.5307007,
          36.3038938
        ]
      },
      "id": "node/3807170524"
    },
    {
      "type": "Feature",
      "properties": {
        "@id": "node/3874510908",
        "addr:street": "شهید نواب صفوی",
        "amenity": "bank",
        "atm": "yes",
        "branch": "صفوی",
        "brand": "بانک ملت",
        "brand:en": "Bank Mellat",
        "brand:wikidata": "Q4855944",
        "brand:wikipedia": "en:Bank Mellat",
        "name": "بانک ملت",
        "name:en": "Bank Mellat"
      },
      "geometry": {
        "type": "Point",
        "coordinates": [
          59.6217061,
          36.2835909
        ]
      },
      "id": "node/3874510908"
    },
    {
      "type": "Feature",
      "properties": {
        "@id": "node/3874510909",
        "amenity": "bank",
        "atm": "yes",
        "brand": "بانک صادرات",
        "brand:en": "Bank Saderat Iran",
        "brand:wikidata": "Q2882608",
        "brand:wikipedia": "en:Bank Saderat Iran",
        "name": "بانک صادرات",
        "name:en": "Bank Saderat Iran"
      },
      "geometry": {
        "type": "Point",
        "coordinates": [
          59.6208549,
          36.2844529
        ]
      },
      "id": "node/3874510909"
    },
    {
      "type": "Feature",
      "properties": {
        "@id": "node/3874510910",
        "amenity": "bank",
        "atm": "yes",
        "name": "بانک سپه",
        "name:en": "Sepah Bank"
      },
      "geometry": {
        "type": "Point",
        "coordinates": [
          59.6207385,
          36.2837924
        ]
      },
      "id": "node/3874510910"
    },
    {
      "type": "Feature",
      "properties": {
        "@id": "node/3903707398",
        "addr:street": "خیابان سرخس",
        "amenity": "bank",
        "atm": "yes",
        "branch": "گلریز",
        "brand": "بانک ملی",
        "brand:en": "Bank Melli Iran",
        "brand:wikidata": "Q806640",
        "brand:wikipedia": "en:Bank Melli Iran",
        "name": "بانک ملی",
        "name:en": "Bank Melli Iran"
      },
      "geometry": {
        "type": "Point",
        "coordinates": [
          59.6295782,
          36.2801053
        ]
      },
      "id": "node/3903707398"
    },
    {
      "type": "Feature",
      "properties": {
        "@id": "node/3903707405",
        "amenity": "bank",
        "atm": "yes",
        "branch": "جلالیه",
        "brand": "بانک صادرات",
        "brand:en": "Bank Saderat Iran",
        "brand:wikidata": "Q2882608",
        "brand:wikipedia": "en:Bank Saderat Iran",
        "name": "بانک صادرات",
        "name:en": "Bank Saderat Iran"
      },
      "geometry": {
        "type": "Point",
        "coordinates": [
          59.6345404,
          36.2792424
        ]
      },
      "id": "node/3903707405"
    },
    {
      "type": "Feature",
      "properties": {
        "@id": "node/3903707406",
        "amenity": "bank",
        "atm": "no",
        "branch": "جلالیه",
        "brand": "بانک ملت",
        "brand:en": "Bank Mellat",
        "brand:wikidata": "Q4855944",
        "brand:wikipedia": "en:Bank Mellat",
        "name": "بانک ملت",
        "name:en": "Bank Mellat"
      },
      "geometry": {
        "type": "Point",
        "coordinates": [
          59.6353984,
          36.2792938
        ]
      },
      "id": "node/3903707406"
    },
    {
      "type": "Feature",
      "properties": {
        "@id": "node/3903707411",
        "addr:street": "خیابان سرخس",
        "amenity": "bank",
        "atm": "yes",
        "branch": "عدالت",
        "brand": "بانک سپه",
        "brand:en": "Bank Sepah",
        "brand:wikidata": "Q2882624",
        "brand:wikipedia": "en:Bank Sepah",
        "name": "بانک سپه",
        "name:en": "Bank Sepah",
        "operator": "بانک سپه"
      },
      "geometry": {
        "type": "Point",
        "coordinates": [
          59.6276471,
          36.2808976
        ]
      },
      "id": "node/3903707411"
    },
    {
      "type": "Feature",
      "properties": {
        "@id": "node/3906978363",
        "amenity": "bank",
        "atm": "yes",
        "brand": "بانک ملت",
        "brand:en": "Bank Mellat",
        "brand:wikidata": "Q4855944",
        "brand:wikipedia": "en:Bank Mellat",
        "name": "بانک ملت",
        "name:en": "Bank Mellat"
      },
      "geometry": {
        "type": "Point",
        "coordinates": [
          59.6047532,
          36.2951806
        ]
      },
      "id": "node/3906978363"
    },
    {
      "type": "Feature",
      "properties": {
        "@id": "node/3916383415",
        "amenity": "bank",
        "brand": "بانک ملی",
        "brand:en": "Bank Melli Iran",
        "brand:wikidata": "Q806640",
        "brand:wikipedia": "en:Bank Melli Iran",
        "name": "بانک ملی",
        "name:en": "Bank Melli Iran"
      },
      "geometry": {
        "type": "Point",
        "coordinates": [
          59.5833035,
          36.2899687
        ]
      },
      "id": "node/3916383415"
    },
    {
      "type": "Feature",
      "properties": {
        "@id": "node/3954624162",
        "amenity": "bank",
        "brand": "بانک صادرات",
        "brand:en": "Bank Saderat Iran",
        "brand:wikidata": "Q2882608",
        "brand:wikipedia": "en:Bank Saderat Iran",
        "name": "بانک صادرات",
        "name:en": "Bank Saderat Iran"
      },
      "geometry": {
        "type": "Point",
        "coordinates": [
          59.5980641,
          36.3055516
        ]
      },
      "id": "node/3954624162"
    },
    {
      "type": "Feature",
      "properties": {
        "@id": "node/3956330430",
        "amenity": "bank",
        "brand": "بانک تجارت",
        "brand:wikidata": "Q7695198",
        "brand:wikipedia": "en:Tejarat Bank",
        "name": "بانک تجارت"
      },
      "geometry": {
        "type": "Point",
        "coordinates": [
          59.599247,
          36.3034719
        ]
      },
      "id": "node/3956330430"
    },
    {
      "type": "Feature",
      "properties": {
        "@id": "node/3962099349",
        "amenity": "bank",
        "brand": "بانک ملی",
        "brand:en": "Bank Melli Iran",
        "brand:wikidata": "Q806640",
        "brand:wikipedia": "en:Bank Melli Iran",
        "name": "بانک ملی",
        "name:en": "Bank Melli Iran"
      },
      "geometry": {
        "type": "Point",
        "coordinates": [
          59.6175517,
          36.3018453
        ]
      },
      "id": "node/3962099349"
    },
    {
      "type": "Feature",
      "properties": {
        "@id": "node/4069076890",
        "amenity": "bank",
        "brand": "بانک صادرات",
        "brand:en": "Bank Saderat Iran",
        "brand:wikidata": "Q2882608",
        "brand:wikipedia": "en:Bank Saderat Iran",
        "name": "بانک صادرات",
        "name:en": "Bank Saderat Iran"
      },
      "geometry": {
        "type": "Point",
        "coordinates": [
          59.5959808,
          36.2645184
        ]
      },
      "id": "node/4069076890"
    },
    {
      "type": "Feature",
      "properties": {
        "@id": "node/4080480400",
        "amenity": "bank",
        "name": "بانک مهر اقتصاد"
      },
      "geometry": {
        "type": "Point",
        "coordinates": [
          59.5757699,
          36.3147935
        ]
      },
      "id": "node/4080480400"
    },
    {
      "type": "Feature",
      "properties": {
        "@id": "node/4199830895",
        "amenity": "bank",
        "atm": "yes",
        "name": "بانک انصار"
      },
      "geometry": {
        "type": "Point",
        "coordinates": [
          59.4766692,
          36.3356517
        ]
      },
      "id": "node/4199830895"
    },
    {
      "type": "Feature",
      "properties": {
        "@id": "node/4240967603",
        "addr:street": "بولوار خیام",
        "amenity": "bank",
        "name": "پست بانک خراسان رضوی"
      },
      "geometry": {
        "type": "Point",
        "coordinates": [
          59.5637827,
          36.3171591
        ]
      },
      "id": "node/4240967603"
    },
    {
      "type": "Feature",
      "properties": {
        "@id": "node/4251236290",
        "addr:street": "فلاحی ۱۳",
        "amenity": "bank",
        "name": "بانک انصار",
        "opening_hours": "Sa-Th 07:00-14:00"
      },
      "geometry": {
        "type": "Point",
        "coordinates": [
          59.4959447,
          36.3607263
        ]
      },
      "id": "node/4251236290"
    },
    {
      "type": "Feature",
      "properties": {
        "@id": "node/4303022199",
        "addr:street": "بولوار مدرس",
        "amenity": "bank",
        "branch": "مدرس",
        "brand": "بانک سپه",
        "brand:en": "Bank Sepah",
        "brand:wikidata": "Q2882624",
        "brand:wikipedia": "en:Bank Sepah",
        "name": "بانک سپه",
        "name:en": "Bank Sepah"
      },
      "geometry": {
        "type": "Point",
        "coordinates": [
          59.6000413,
          36.2934313
        ]
      },
      "id": "node/4303022199"
    },
    {
      "type": "Feature",
      "properties": {
        "@id": "node/4310464444",
        "amenity": "bank",
        "name": "موسسه اعتباری عسکریه"
      },
      "geometry": {
        "type": "Point",
        "coordinates": [
          59.5781583,
          36.294765
        ]
      },
      "id": "node/4310464444"
    },
    {
      "type": "Feature",
      "properties": {
        "@id": "node/4310464720",
        "amenity": "bank",
        "name": "موسسه اعتباری کوثر"
      },
      "geometry": {
        "type": "Point",
        "coordinates": [
          59.57857,
          36.2945975
        ]
      },
      "id": "node/4310464720"
    },
    {
      "type": "Feature",
      "properties": {
        "@id": "node/4310465379",
        "amenity": "bank",
        "atm": "yes",
        "brand": "بانک تجارت",
        "brand:wikidata": "Q7695198",
        "brand:wikipedia": "en:Tejarat Bank",
        "name": "بانک تجارت"
      },
      "geometry": {
        "type": "Point",
        "coordinates": [
          59.5781067,
          36.29432
        ]
      },
      "id": "node/4310465379"
    },
    {
      "type": "Feature",
      "properties": {
        "@id": "node/4310466225",
        "amenity": "bank",
        "name": "موسسه اعتباری ثامن"
      },
      "geometry": {
        "type": "Point",
        "coordinates": [
          59.5781883,
          36.2942467
        ]
      },
      "id": "node/4310466225"
    },
    {
      "type": "Feature",
      "properties": {
        "@id": "node/4310468459",
        "amenity": "bank",
        "name": "بانک قرض الحسنه رسالت"
      },
      "geometry": {
        "type": "Point",
        "coordinates": [
          59.579055,
          36.2939967
        ]
      },
      "id": "node/4310468459"
    },
    {
      "type": "Feature",
      "properties": {
        "@id": "node/4310471207",
        "amenity": "bank",
        "brand": "بانک مسکن",
        "brand:en": "Bank Maskan",
        "brand:wikidata": "Q4855942",
        "brand:wikipedia": "en:Bank Maskan",
        "name": "بانک مسکن",
        "name:en": "Bank Maskan"
      },
      "geometry": {
        "type": "Point",
        "coordinates": [
          59.5801583,
          36.2940933
        ]
      },
      "id": "node/4310471207"
    },
    {
      "type": "Feature",
      "properties": {
        "@id": "node/4310471627",
        "amenity": "bank",
        "brand": "بانک شهر",
        "brand:en": "Shahr Bank",
        "brand:wikidata": "Q5941033",
        "brand:wikipedia": "fa:بانک شهر",
        "name": "بانک شهر",
        "name:en": "Shahr Bank"
      },
      "geometry": {
        "type": "Point",
        "coordinates": [
          59.5799167,
          36.2941867
        ]
      },
      "id": "node/4310471627"
    },
    {
      "type": "Feature",
      "properties": {
        "@id": "node/4310472762",
        "amenity": "bank",
        "brand": "بانک ایران زمین",
        "brand:wikidata": "Q5934423",
        "brand:wikipedia": "en:Iran Zamin Bank",
        "name": "بانک ایران زمین"
      },
      "geometry": {
        "type": "Point",
        "coordinates": [
          59.5800181,
          36.2936373
        ]
      },
      "id": "node/4310472762"
    },
    {
      "type": "Feature",
      "properties": {
        "@id": "node/4310472763",
        "amenity": "bank",
        "name": "موسسه اعتباری نور"
      },
      "geometry": {
        "type": "Point",
        "coordinates": [
          59.5817381,
          36.2935527
        ]
      },
      "id": "node/4310472763"
    },
    {
      "type": "Feature",
      "properties": {
        "@id": "node/4310474244",
        "amenity": "bank",
        "name": "بانک کارآفرین",
        "name:en": "Karafarin Bank"
      },
      "geometry": {
        "type": "Point",
        "coordinates": [
          59.5813274,
          36.2937527
        ]
      },
      "id": "node/4310474244"
    },
    {
      "type": "Feature",
      "properties": {
        "@id": "node/4310474305",
        "amenity": "bank",
        "name": "موسسه اعتباری ثامن الحجج"
      },
      "geometry": {
        "type": "Point",
        "coordinates": [
          59.581845,
          36.2934917
        ]
      },
      "id": "node/4310474305"
    },
    {
      "type": "Feature",
      "properties": {
        "@id": "node/4310474568",
        "amenity": "bank",
        "brand": "بانک ملت",
        "brand:en": "Bank Mellat",
        "brand:wikidata": "Q4855944",
        "brand:wikipedia": "en:Bank Mellat",
        "name": "بانک ملت",
        "name:en": "Bank Mellat"
      },
      "geometry": {
        "type": "Point",
        "coordinates": [
          59.585275,
          36.2921517
        ]
      },
      "id": "node/4310474568"
    },
    {
      "type": "Feature",
      "properties": {
        "@id": "node/4344306826",
        "amenity": "bank",
        "brand": "بانک تجارت",
        "brand:wikidata": "Q7695198",
        "brand:wikipedia": "en:Tejarat Bank",
        "name": "بانک تجارت"
      },
      "geometry": {
        "type": "Point",
        "coordinates": [
          59.5337825,
          36.326419
        ]
      },
      "id": "node/4344306826"
    },
    {
      "type": "Feature",
      "properties": {
        "@id": "node/4344306829",
        "amenity": "bank",
        "name": "موسسه مالی اعتباری افضل",
        "name:en": "Afzal credit institute"
      },
      "geometry": {
        "type": "Point",
        "coordinates": [
          59.5338818,
          36.3264255
        ]
      },
      "id": "node/4344306829"
    },
    {
      "type": "Feature",
      "properties": {
        "@id": "node/4347461098",
        "amenity": "bank",
        "atm": "yes",
        "brand": "بانک صادرات",
        "brand:en": "Bank Saderat Iran",
        "brand:wikidata": "Q2882608",
        "brand:wikipedia": "en:Bank Saderat Iran",
        "name": "بانک صادرات",
        "name:en": "Bank Saderat Iran"
      },
      "geometry": {
        "type": "Point",
        "coordinates": [
          59.6144727,
          36.2736425
        ]
      },
      "id": "node/4347461098"
    },
    {
      "type": "Feature",
      "properties": {
        "@id": "node/4357467990",
        "addr:street": "رودکی",
        "amenity": "bank",
        "email": "h_saberi2005@yahoo.com",
        "phone": "989151018865"
      },
      "geometry": {
        "type": "Point",
        "coordinates": [
          59.5715941,
          36.2796389
        ]
      },
      "id": "node/4357467990"
    },
    {
      "type": "Feature",
      "properties": {
        "@id": "node/4357520421",
        "amenity": "bank"
      },
      "geometry": {
        "type": "Point",
        "coordinates": [
          59.5779138,
          36.3108816
        ]
      },
      "id": "node/4357520421"
    },
    {
      "type": "Feature",
      "properties": {
        "@id": "node/4367651607",
        "amenity": "bank",
        "branch": "احمدآباد",
        "brand": "بانک مسکن",
        "brand:en": "Bank Maskan",
        "brand:wikidata": "Q4855942",
        "brand:wikipedia": "en:Bank Maskan",
        "name": "بانک مسکن",
        "name:en": "Bank Maskan",
        "opening_hours": "Sa-Th 08:00-13:30"
      },
      "geometry": {
        "type": "Point",
        "coordinates": [
          59.5680759,
          36.298915
        ]
      },
      "id": "node/4367651607"
    },
    {
      "type": "Feature",
      "properties": {
        "@id": "node/4374193495",
        "addr:street": "امام خمینی",
        "amenity": "bank",
        "name": "بانک حکمت ایرانیان",
        "name:en": "Bank Hekmat"
      },
      "geometry": {
        "type": "Point",
        "coordinates": [
          59.5999975,
          36.2888114
        ]
      },
      "id": "node/4374193495"
    },
    {
      "type": "Feature",
      "properties": {
        "@id": "node/4383006991",
        "addr:street": "میدان حجاب",
        "amenity": "bank",
        "name": "بانک سپه",
        "name:en": "Sepah Bank",
        "opening_hours": "Sa-Th 07:30-13:00"
      },
      "geometry": {
        "type": "Point",
        "coordinates": [
          59.5136648,
          36.3719738
        ]
      },
      "id": "node/4383006991"
    },
    {
      "type": "Feature",
      "properties": {
        "@id": "node/4388760889",
        "amenity": "bank",
        "name": "سامان"
      },
      "geometry": {
        "type": "Point",
        "coordinates": [
          59.5939483,
          36.2665741
        ]
      },
      "id": "node/4388760889"
    },
    {
      "type": "Feature",
      "properties": {
        "@id": "node/4392730499",
        "addr:street": "میدان حجاب",
        "amenity": "bank",
        "name": "پست بانک",
        "name:en": "Post Bank",
        "opening_hours": "Sa-Th 07:30-13:00"
      },
      "geometry": {
        "type": "Point",
        "coordinates": [
          59.5137018,
          36.3719529
        ]
      },
      "id": "node/4392730499"
    },
    {
      "type": "Feature",
      "properties": {
        "@id": "node/4394471789",
        "amenity": "bank",
        "name:ar": "مركز صرافة"
      },
      "geometry": {
        "type": "Point",
        "coordinates": [
          59.6019265,
          36.2899282
        ]
      },
      "id": "node/4394471789"
    },
    {
      "type": "Feature",
      "properties": {
        "@id": "node/4395003296",
        "amenity": "bank"
      },
      "geometry": {
        "type": "Point",
        "coordinates": [
          59.5136732,
          36.3720454
        ]
      },
      "id": "node/4395003296"
    },
    {
      "type": "Feature",
      "properties": {
        "@id": "node/4395014391",
        "amenity": "bank"
      },
      "geometry": {
        "type": "Point",
        "coordinates": [
          59.5136351,
          36.3720486
        ]
      },
      "id": "node/4395014391"
    },
    {
      "type": "Feature",
      "properties": {
        "@id": "node/4395074290",
        "amenity": "bank",
        "name": "بانک سپه",
        "name:en": "Sepah Bank"
      },
      "geometry": {
        "type": "Point",
        "coordinates": [
          59.51358,
          36.3720583
        ]
      },
      "id": "node/4395074290"
    },
    {
      "type": "Feature",
      "properties": {
        "@id": "node/4417553692",
        "amenity": "bank",
        "atm": "yes",
        "name": "بانک صادرات"
      },
      "geometry": {
        "type": "Point",
        "coordinates": [
          59.5673696,
          36.2922635
        ]
      },
      "id": "node/4417553692"
    },
    {
      "type": "Feature",
      "properties": {
        "@id": "node/4417745746",
        "addr:city": "مشهد",
        "addr:street": "پاسداران",
        "amenity": "bank",
        "atm": "no",
        "name": "بانک ملی"
      },
      "geometry": {
        "type": "Point",
        "coordinates": [
          59.5956057,
          36.2888757
        ]
      },
      "id": "node/4417745746"
    },
    {
      "type": "Feature",
      "properties": {
        "@id": "node/4417864796",
        "addr:street": "پاسداران",
        "amenity": "bank",
        "name": "بانک ملی"
      },
      "geometry": {
        "type": "Point",
        "coordinates": [
          59.595508,
          36.2886758
        ]
      },
      "id": "node/4417864796"
    },
    {
      "type": "Feature",
      "properties": {
        "@id": "node/4417954259",
        "amenity": "bank",
        "brand": "بانک صادرات",
        "brand:en": "Bank Saderat Iran",
        "brand:wikidata": "Q2882608",
        "brand:wikipedia": "en:Bank Saderat Iran",
        "name": "بانک صادرات",
        "name:en": "Bank Saderat Iran"
      },
      "geometry": {
        "type": "Point",
        "coordinates": [
          59.5657128,
          36.3052989
        ]
      },
      "id": "node/4417954259"
    },
    {
      "type": "Feature",
      "properties": {
        "@id": "node/4417954261",
        "amenity": "bank",
        "brand": "بانک قوامین",
        "brand:en": "Ghavamin Bank",
        "brand:wikidata": "Q10860253",
        "brand:wikipedia": "en:Ghavamin Bank",
        "name": "بانک قوامین",
        "name:en": "Ghavamin Bank"
      },
      "geometry": {
        "type": "Point",
        "coordinates": [
          59.5666235,
          36.3063738
        ]
      },
      "id": "node/4417954261"
    },
    {
      "type": "Feature",
      "properties": {
        "@id": "node/4417954285",
        "amenity": "bank",
        "brand": "بانک آینده",
        "brand:en": "Ayandeh Bank",
        "brand:wikidata": "Q5938144",
        "brand:wikipedia": "en:Ayandeh Bank",
        "name": "بانک آینده",
        "name:en": "Ayandeh Bank"
      },
      "geometry": {
        "type": "Point",
        "coordinates": [
          59.5585165,
          36.3156808
        ]
      },
      "id": "node/4417954285"
    },
    {
      "type": "Feature",
      "properties": {
        "@id": "node/4417954286",
        "amenity": "bank",
        "brand": "بانک سرمایه",
        "brand:en": "Sarmayeh Bank",
        "brand:wikidata": "Q7424291",
        "brand:wikipedia": "en:Sarmayeh Bank",
        "name": "بانک سرمایه",
        "name:en": "Sarmayeh Bank"
      },
      "geometry": {
        "type": "Point",
        "coordinates": [
          59.5608329,
          36.3143215
        ]
      },
      "id": "node/4417954286"
    },
    {
      "type": "Feature",
      "properties": {
        "@id": "node/4418011642",
        "addr:street": "بلوار فدائیان اسلام",
        "amenity": "bank",
        "brand": "بانک سپه",
        "brand:en": "Bank Sepah",
        "brand:wikidata": "Q2882624",
        "brand:wikipedia": "en:Bank Sepah",
        "name": "بانک سپه",
        "name:en": "Bank Sepah"
      },
      "geometry": {
        "type": "Point",
        "coordinates": [
          59.6102791,
          36.2663771
        ]
      },
      "id": "node/4418011642"
    },
    {
      "type": "Feature",
      "properties": {
        "@id": "node/4433908079",
        "addr:street": "سناباد",
        "amenity": "bank",
        "brand": "بانک مهر اقتصاد",
        "brand:wikidata": "Q5942921",
        "brand:wikipedia": "fa:بانک مهر اقتصاد",
        "name": "بانک مهر اقتصاد",
        "name:en": "Mehr Eqtesad Bank"
      },
      "geometry": {
        "type": "Point",
        "coordinates": [
          59.5674882,
          36.3068649
        ]
      },
      "id": "node/4433908079"
    },
    {
      "type": "Feature",
      "properties": {
        "@id": "node/4466264495",
        "amenity": "bank",
        "brand": "بانک تجارت",
        "brand:wikidata": "Q7695198",
        "brand:wikipedia": "en:Tejarat Bank",
        "name": "بانک تجارت",
        "name:en": "Bank Tejarat"
      },
      "geometry": {
        "type": "Point",
        "coordinates": [
          59.6068893,
          36.2905954
        ]
      },
      "id": "node/4466264495"
    },
    {
      "type": "Feature",
      "properties": {
        "@id": "node/4466270792",
        "amenity": "bank",
        "branch": "اندرزگو",
        "brand": "بانک ملی",
        "brand:en": "Bank Melli Iran",
        "brand:wikidata": "Q806640",
        "brand:wikipedia": "en:Bank Melli Iran",
        "name": "بانک ملی",
        "name:en": "Bank Melli Iran"
      },
      "geometry": {
        "type": "Point",
        "coordinates": [
          59.6071262,
          36.290249
        ]
      },
      "id": "node/4466270792"
    },
    {
      "type": "Feature",
      "properties": {
        "@id": "node/4466384992",
        "amenity": "bank",
        "name": "بانک ملت",
        "name:en": "Bank Mellat",
        "website": "https://www.bankmellat.ir/"
      },
      "geometry": {
        "type": "Point",
        "coordinates": [
          59.5942106,
          36.283271
        ]
      },
      "id": "node/4466384992"
    },
    {
      "type": "Feature",
      "properties": {
        "@id": "node/4466384994",
        "amenity": "bank",
        "name": "بانک ملی ایران",
        "name:en": "Bank Melli Iran"
      },
      "geometry": {
        "type": "Point",
        "coordinates": [
          59.5934715,
          36.2832818
        ]
      },
      "id": "node/4466384994"
    },
    {
      "type": "Feature",
      "properties": {
        "@id": "node/4466386393",
        "amenity": "bank",
        "atm": "yes",
        "name": "بانک سپه",
        "name:en": "Bank Sepah"
      },
      "geometry": {
        "type": "Point",
        "coordinates": [
          59.5943131,
          36.2831084
        ]
      },
      "id": "node/4466386393"
    },
    {
      "type": "Feature",
      "properties": {
        "@id": "node/4466473089",
        "amenity": "bank",
        "name": "بانک ملت",
        "name:en": "Bank Mellat",
        "website": "https://www.bankmellat.ir/"
      },
      "geometry": {
        "type": "Point",
        "coordinates": [
          59.5938881,
          36.282739
        ]
      },
      "id": "node/4466473089"
    },
    {
      "type": "Feature",
      "properties": {
        "@id": "node/4467772789",
        "amenity": "bank",
        "brand": "بانک ایران زمین",
        "brand:wikidata": "Q5934423",
        "brand:wikipedia": "en:Iran Zamin Bank",
        "name": "بانک ایران زمین",
        "name:en": "Iran Zamin Bank"
      },
      "geometry": {
        "type": "Point",
        "coordinates": [
          59.5968587,
          36.2832131
        ]
      },
      "id": "node/4467772789"
    },
    {
      "type": "Feature",
      "properties": {
        "@id": "node/4538192989",
        "addr:street": "امام خمینی",
        "amenity": "bank",
        "branch": "ده دی",
        "brand": "بانک سپه",
        "brand:en": "Bank Sepah",
        "brand:wikidata": "Q2882624",
        "brand:wikipedia": "en:Bank Sepah",
        "name": "بانک سپه",
        "name:en": "Bank Sepah"
      },
      "geometry": {
        "type": "Point",
        "coordinates": [
          59.5973793,
          36.2834859
        ]
      },
      "id": "node/4538192989"
    },
    {
      "type": "Feature",
      "properties": {
        "@id": "node/4540097840",
        "amenity": "bank",
        "brand": "بانک صادرات",
        "brand:en": "Bank Saderat Iran",
        "brand:wikidata": "Q2882608",
        "brand:wikipedia": "en:Bank Saderat Iran",
        "name": "بانک صادرات",
        "name:en": "Bank Saderat Iran"
      },
      "geometry": {
        "type": "Point",
        "coordinates": [
          59.5194799,
          36.3308238
        ]
      },
      "id": "node/4540097840"
    },
    {
      "type": "Feature",
      "properties": {
        "@id": "node/4540097841",
        "amenity": "bank",
        "brand": "بانک انصار",
        "brand:wikidata": "Q5862675",
        "brand:wikipedia": "fa:بانک انصار",
        "name": "بانک انصار",
        "name:en": "Ansar Bank"
      },
      "geometry": {
        "type": "Point",
        "coordinates": [
          59.5209469,
          36.3309226
        ]
      },
      "id": "node/4540097841"
    },
    {
      "type": "Feature",
      "properties": {
        "@id": "node/4555364592",
        "amenity": "bank",
        "branch": "هاشمیه",
        "brand": "بانک رفاه",
        "brand:en": "Refah Bank",
        "brand:wikidata": "Q7307083",
        "brand:wikipedia": "en:Refah Bank",
        "name": "بانک رفاه",
        "name:en": "Refah Bank"
      },
      "geometry": {
        "type": "Point",
        "coordinates": [
          59.5090355,
          36.3156899
        ]
      },
      "id": "node/4555364592"
    },
    {
      "type": "Feature",
      "properties": {
        "@id": "node/4561870790",
        "amenity": "bank",
        "name": "مهر اقتصاد"
      },
      "geometry": {
        "type": "Point",
        "coordinates": [
          59.4963224,
          36.361345
        ]
      },
      "id": "node/4561870790"
    },
    {
      "type": "Feature",
      "properties": {
        "@id": "node/4582299242",
        "addr:street": "وکیل آباد ۲۸",
        "amenity": "bank",
        "brand": "بانک قوامین",
        "brand:en": "Ghavamin Bank",
        "brand:wikidata": "Q10860253",
        "brand:wikipedia": "en:Ghavamin Bank",
        "name": "بانک قوامین",
        "name:en": "Ghavamin Bank"
      },
      "geometry": {
        "type": "Point",
        "coordinates": [
          59.4961354,
          36.3286604
        ]
      },
      "id": "node/4582299242"
    },
    {
      "type": "Feature",
      "properties": {
        "@id": "node/4584886690",
        "amenity": "bank",
        "brand": "بانک مهر اقتصاد",
        "brand:wikidata": "Q5942921",
        "brand:wikipedia": "fa:بانک مهر اقتصاد",
        "name": "بانک مهر اقتصاد",
        "name:en": "Mehr Eqtesad Bank"
      },
      "geometry": {
        "type": "Point",
        "coordinates": [
          59.5268023,
          36.3287316
        ]
      },
      "id": "node/4584886690"
    },
    {
      "type": "Feature",
      "properties": {
        "@id": "node/4611395171",
        "addr:city": "مشهد",
        "addr:street": "نبش حجاب ۳۸",
        "amenity": "bank",
        "atm": "yes",
        "drive_through": "no",
        "name": "خودپرداز بانک سپه"
      },
      "geometry": {
        "type": "Point",
        "coordinates": [
          59.5190539,
          36.3651364
        ]
      },
      "id": "node/4611395171"
    },
    {
      "type": "Feature",
      "properties": {
        "@id": "node/4736723028",
        "amenity": "bank",
        "atm": "yes",
        "name": "بانک شهر"
      },
      "geometry": {
        "type": "Point",
        "coordinates": [
          59.6440974,
          36.2829851
        ]
      },
      "id": "node/4736723028"
    },
    {
      "type": "Feature",
      "properties": {
        "@id": "node/4743397124",
        "amenity": "bank",
        "name": "سپه"
      },
      "geometry": {
        "type": "Point",
        "coordinates": [
          59.6007521,
          36.3322042
        ]
      },
      "id": "node/4743397124"
    },
    {
      "type": "Feature",
      "properties": {
        "@id": "node/4784056421",
        "amenity": "bank",
        "brand": "بانک صادرات",
        "brand:en": "Bank Saderat Iran",
        "brand:wikidata": "Q2882608",
        "brand:wikipedia": "en:Bank Saderat Iran",
        "name": "بانک صادرات",
        "name:en": "Bank Saderat Iran"
      },
      "geometry": {
        "type": "Point",
        "coordinates": [
          59.6282934,
          36.3406796
        ]
      },
      "id": "node/4784056421"
    },
    {
      "type": "Feature",
      "properties": {
        "@id": "node/4784732721",
        "addr:street": "رسالت ۴۶",
        "amenity": "bank",
        "branch": "رسالت",
        "brand": "بانک ملی",
        "brand:en": "Bank Melli Iran",
        "brand:wikidata": "Q806640",
        "brand:wikipedia": "en:Bank Melli Iran",
        "name": "بانک ملی",
        "name:en": "Bank Melli Iran"
      },
      "geometry": {
        "type": "Point",
        "coordinates": [
          59.6380555,
          36.3148456
        ]
      },
      "id": "node/4784732721"
    },
    {
      "type": "Feature",
      "properties": {
        "@id": "node/4797227322",
        "amenity": "bank",
        "name": "قوامین",
        "name:en": "Ghavamin"
      },
      "geometry": {
        "type": "Point",
        "coordinates": [
          59.5447371,
          36.3185532
        ]
      },
      "id": "node/4797227322"
    },
    {
      "type": "Feature",
      "properties": {
        "@id": "node/4813657104",
        "amenity": "bank",
        "atm": "yes",
        "branch": "مرکزی مشهد",
        "brand": "بانک انصار",
        "brand:wikidata": "Q5862675",
        "brand:wikipedia": "fa:بانک انصار",
        "name": "بانک انصار",
        "name:en": "Ansar bank",
        "operator": "Ansar Bank"
      },
      "geometry": {
        "type": "Point",
        "coordinates": [
          59.6082381,
          36.3010168
        ]
      },
      "id": "node/4813657104"
    },
    {
      "type": "Feature",
      "properties": {
        "@id": "node/4859614422",
        "amenity": "bank",
        "name": "بانک ملت",
        "name:en": "Bank Mellat"
      },
      "geometry": {
        "type": "Point",
        "coordinates": [
          59.4888301,
          36.3573909
        ]
      },
      "id": "node/4859614422"
    },
    {
      "type": "Feature",
      "properties": {
        "@id": "node/4869487121",
        "amenity": "bank",
        "branch": "ثامن الائمه",
        "brand": "بانک سپه",
        "brand:en": "Bank Sepah",
        "brand:wikidata": "Q2882624",
        "brand:wikipedia": "en:Bank Sepah",
        "name": "بانک سپه",
        "name:en": "Bank Sepah"
      },
      "geometry": {
        "type": "Point",
        "coordinates": [
          59.5675339,
          36.2874509
        ]
      },
      "id": "node/4869487121"
    },
    {
      "type": "Feature",
      "properties": {
        "@id": "node/4873436921",
        "amenity": "bank",
        "name": "پست بانک میدیریت شعب خراسان رضوی",
        "name:en": "Post bank Sarparasti khorasan"
      },
      "geometry": {
        "type": "Point",
        "coordinates": [
          59.5632651,
          36.3175556
        ]
      },
      "id": "node/4873436921"
    },
    {
      "type": "Feature",
      "properties": {
        "@id": "node/4873438221",
        "amenity": "bank",
        "name": "بانک رفاه کارگران"
      },
      "geometry": {
        "type": "Point",
        "coordinates": [
          59.5633124,
          36.3176111
        ]
      },
      "id": "node/4873438221"
    },
    {
      "type": "Feature",
      "properties": {
        "@id": "node/4893289619",
        "amenity": "bank",
        "branch": "ایثار کد ۵۰۰۲",
        "name": "بانک دی"
      },
      "geometry": {
        "type": "Point",
        "coordinates": [
          59.566238,
          36.2989662
        ]
      },
      "id": "node/4893289619"
    },
    {
      "type": "Feature",
      "properties": {
        "@id": "node/4898200523",
        "amenity": "bank",
        "name": "بانک مسکن، چهارراه سناباد",
        "name:en": "Bank Maskan, Sanabad Intersection"
      },
      "geometry": {
        "type": "Point",
        "coordinates": [
          59.5848693,
          36.3020203
        ]
      },
      "id": "node/4898200523"
    },
    {
      "type": "Feature",
      "properties": {
        "@id": "node/4984640724",
        "amenity": "bank",
        "brand": "بانک رفاه",
        "brand:en": "Refah Bank",
        "brand:wikidata": "Q7307083",
        "brand:wikipedia": "en:Refah Bank",
        "name": "بانک رفاه",
        "name:en": "Refah Bank"
      },
      "geometry": {
        "type": "Point",
        "coordinates": [
          59.5117411,
          36.3054778
        ]
      },
      "id": "node/4984640724"
    },
    {
      "type": "Feature",
      "properties": {
        "@id": "node/4984645021",
        "amenity": "bank",
        "brand": "بانک انصار",
        "brand:wikidata": "Q5862675",
        "brand:wikipedia": "fa:بانک انصار",
        "name": "بانک انصار"
      },
      "geometry": {
        "type": "Point",
        "coordinates": [
          59.511513,
          36.3055948
        ]
      },
      "id": "node/4984645021"
    },
    {
      "type": "Feature",
      "properties": {
        "@id": "node/4986844949",
        "addr:street": "پاسداران",
        "amenity": "bank",
        "name": "بانک سپه",
        "name:en": "Sepah Bank"
      },
      "geometry": {
        "type": "Point",
        "coordinates": [
          59.5958242,
          36.288482
        ]
      },
      "id": "node/4986844949"
    },
    {
      "type": "Feature",
      "properties": {
        "@id": "node/4992599821",
        "amenity": "bank",
        "atm": "yes",
        "name": "بانک کوثر",
        "name:en": "Kowsar Bank",
        "operator": "بانک کوثر"
      },
      "geometry": {
        "type": "Point",
        "coordinates": [
          59.5085071,
          36.3187423
        ]
      },
      "id": "node/4992599821"
    },
    {
      "type": "Feature",
      "properties": {
        "@id": "node/5000957822",
        "addr:street": "بولوار مدرس",
        "amenity": "bank",
        "branch": "مدرس مشهد",
        "brand": "بانک سامان",
        "brand:en": "Saman Bank",
        "brand:wikidata": "Q4117676",
        "brand:wikipedia": "en:Saman Bank",
        "name": "بانک سامان",
        "name:en": "Saman Bank"
      },
      "geometry": {
        "type": "Point",
        "coordinates": [
          59.599026,
          36.2944345
        ]
      },
      "id": "node/5000957822"
    },
    {
      "type": "Feature",
      "properties": {
        "@id": "node/5016057424",
        "amenity": "bank",
        "name": "همت ۶",
        "name:en": "Hemmat 6"
      },
      "geometry": {
        "type": "Point",
        "coordinates": [
          59.5736717,
          36.2767017
        ]
      },
      "id": "node/5016057424"
    },
    {
      "type": "Feature",
      "properties": {
        "@id": "node/5018312322",
        "amenity": "bank",
        "name": "بانک شهر",
        "name:en": "Shahr Bank"
      },
      "geometry": {
        "type": "Point",
        "coordinates": [
          59.5690677,
          36.3217241
        ]
      },
      "id": "node/5018312322"
    },
    {
      "type": "Feature",
      "properties": {
        "@id": "node/5044208323",
        "addr:street": "بین امام رضای ۳۷ و ۳۹",
        "amenity": "bank",
        "brand": "بانک مسکن",
        "brand:en": "Bank Maskan",
        "brand:wikidata": "Q4855942",
        "brand:wikipedia": "en:Bank Maskan",
        "name": "بانک مسکن",
        "name:en": "Bank Maskan",
        "opening_hours": "Mo-Su 07:30-13:30"
      },
      "geometry": {
        "type": "Point",
        "coordinates": [
          59.6001008,
          36.2699533
        ]
      },
      "id": "node/5044208323"
    },
    {
      "type": "Feature",
      "properties": {
        "@id": "node/5054195421",
        "amenity": "bank",
        "name": "غزال ۹",
        "name:en": "Ghazal 9"
      },
      "geometry": {
        "type": "Point",
        "coordinates": [
          59.5059639,
          36.2794899
        ]
      },
      "id": "node/5054195421"
    },
    {
      "type": "Feature",
      "properties": {
        "@id": "node/5059517422",
        "amenity": "bank",
        "atm": "yes",
        "brand": "بانک شهر",
        "brand:en": "Shahr Bank",
        "brand:wikidata": "Q5941033",
        "brand:wikipedia": "fa:بانک شهر",
        "drive_through": "yes",
        "name": "بانک شهر",
        "name:ar": "بنك شهر",
        "name:en": "Shahr Bank"
      },
      "geometry": {
        "type": "Point",
        "coordinates": [
          59.6083251,
          36.2888127
        ]
      },
      "id": "node/5059517422"
    },
    {
      "type": "Feature",
      "properties": {
        "@id": "node/5061778922",
        "amenity": "bank",
        "brand": "بانک ملت",
        "brand:en": "Bank Mellat",
        "brand:wikidata": "Q4855944",
        "brand:wikipedia": "en:Bank Mellat",
        "name": "بانک ملت",
        "name:en": "Bank Mellat"
      },
      "geometry": {
        "type": "Point",
        "coordinates": [
          59.6106806,
          36.2816923
        ]
      },
      "id": "node/5061778922"
    },
    {
      "type": "Feature",
      "properties": {
        "@id": "node/5072717721",
        "addr:street": "وحید",
        "amenity": "bank",
        "branch": "دریا",
        "brand": "بانک ملی",
        "brand:en": "Bank Melli Iran",
        "brand:wikidata": "Q806640",
        "brand:wikipedia": "en:Bank Melli Iran",
        "name": "بانک ملی",
        "name:en": "Bank Melli Iran"
      },
      "geometry": {
        "type": "Point",
        "coordinates": [
          59.6508901,
          36.3029949
        ]
      },
      "id": "node/5072717721"
    },
    {
      "type": "Feature",
      "properties": {
        "@id": "node/5072718021",
        "amenity": "bank",
        "brand": "بانک سپه",
        "brand:en": "Bank Sepah",
        "brand:wikidata": "Q2882624",
        "brand:wikipedia": "en:Bank Sepah",
        "name": "بانک سپه",
        "name:en": "Bank Sepah"
      },
      "geometry": {
        "type": "Point",
        "coordinates": [
          59.6512222,
          36.3031847
        ]
      },
      "id": "node/5072718021"
    },
    {
      "type": "Feature",
      "properties": {
        "@id": "node/5074988121",
        "addr:street": "امام رضا ۱۰",
        "amenity": "bank",
        "branch": "خیابان امام رضا (ع)",
        "brand": "بانک پارسیان",
        "brand:en": "Parsian Bank",
        "brand:wikidata": "Q2410404",
        "brand:wikipedia": "en:Parsian Bank",
        "name": "بانک پارسیان",
        "name:en": "Parsian Bank"
      },
      "geometry": {
        "type": "Point",
        "coordinates": [
          59.6100645,
          36.2810231
        ]
      },
      "id": "node/5074988121"
    },
    {
      "type": "Feature",
      "properties": {
        "@id": "node/5118354921",
        "addr:street": "شفیعی۳۱",
        "amenity": "bank",
        "name": "بانک صادرات",
        "name:en": "Saderat Bank"
      },
      "geometry": {
        "type": "Point",
        "coordinates": [
          59.6753207,
          36.2942855
        ]
      },
      "id": "node/5118354921"
    },
    {
      "type": "Feature",
      "properties": {
        "@id": "node/5163197405",
        "amenity": "bank",
        "building": "yes",
        "name": "بانک حکمت ایرانیان"
      },
      "geometry": {
        "type": "Point",
        "coordinates": [
          59.4980037,
          36.3523155
        ]
      },
      "id": "node/5163197405"
    },
    {
      "type": "Feature",
      "properties": {
        "@id": "node/5209905124",
        "addr:street": "بولوار بهار",
        "amenity": "bank",
        "name": "بانک انصار",
        "name:en": "BankAnsar"
      },
      "geometry": {
        "type": "Point",
        "coordinates": [
          59.5972287,
          36.2796709
        ]
      },
      "id": "node/5209905124"
    },
    {
      "type": "Feature",
      "properties": {
        "@id": "node/5240185822",
        "addr:street": "بلوار پیروزی بین ۵۹و۶۱پلاک ۵۱",
        "amenity": "bank",
        "name": "دفتر پیشخوان دولت احمدی",
        "name:en": "Daftar Pishkhan Dowlat Ahmadi",
        "opening_hours": "Sa-Th 08:00-20:00",
        "phone": "+985138911107"
      },
      "geometry": {
        "type": "Point",
        "coordinates": [
          59.4872149,
          36.3220646
        ]
      },
      "id": "node/5240185822"
    },
    {
      "type": "Feature",
      "properties": {
        "@id": "node/5241650088",
        "amenity": "bank",
        "atm": "yes",
        "brand": "بانک ملی",
        "brand:en": "Bank Melli Iran",
        "brand:wikidata": "Q806640",
        "brand:wikipedia": "en:Bank Melli Iran",
        "name": "بانک ملی",
        "name:en": "Bank Melli Iran",
        "opening_hours": "Mo-We,Sa-Su 07:30-13:30; Th 07:30-12:30; PH closed",
        "operator": "Melli bank"
      },
      "geometry": {
        "type": "Point",
        "coordinates": [
          59.5098437,
          36.3164393
        ]
      },
      "id": "node/5241650088"
    },
    {
      "type": "Feature",
      "properties": {
        "@id": "node/5254253621",
        "addr:street": "بولوار شهید آیت الله دستغیب",
        "amenity": "bank",
        "name": "بانک ملت",
        "name:en": "Mellat"
      },
      "geometry": {
        "type": "Point",
        "coordinates": [
          59.5637459,
          36.3126863
        ]
      },
      "id": "node/5254253621"
    },
    {
      "type": "Feature",
      "properties": {
        "@id": "node/5302973432",
        "amenity": "bank",
        "name": "بانک قرض الحسنه رسالت"
      },
      "geometry": {
        "type": "Point",
        "coordinates": [
          59.5092352,
          36.364276
        ]
      },
      "id": "node/5302973432"
    },
    {
      "type": "Feature",
      "properties": {
        "@id": "node/5313304744",
        "amenity": "bank",
        "atm": "yes",
        "name": "بانک ملی"
      },
      "geometry": {
        "type": "Point",
        "coordinates": [
          59.5648346,
          36.2914197
        ]
      },
      "id": "node/5313304744"
    },
    {
      "type": "Feature",
      "properties": {
        "@id": "node/5313304745",
        "amenity": "bank",
        "name": "موسسه اعتباری ثامن"
      },
      "geometry": {
        "type": "Point",
        "coordinates": [
          59.5648673,
          36.2917499
        ]
      },
      "id": "node/5313304745"
    },
    {
      "type": "Feature",
      "properties": {
        "@id": "node/5314541224",
        "amenity": "bank",
        "name": "انصار",
        "name:en": "Ansar Bank"
      },
      "geometry": {
        "type": "Point",
        "coordinates": [
          59.6443035,
          36.2953634
        ]
      },
      "id": "node/5314541224"
    },
    {
      "type": "Feature",
      "properties": {
        "@id": "node/5317032028",
        "amenity": "bank",
        "brand": "بانک ملی",
        "brand:en": "Bank Melli Iran",
        "brand:wikidata": "Q806640",
        "brand:wikipedia": "en:Bank Melli Iran",
        "name": "بانک ملی",
        "name:en": "Bank Melli Iran"
      },
      "geometry": {
        "type": "Point",
        "coordinates": [
          59.5150396,
          36.3324413
        ]
      },
      "id": "node/5317032028"
    },
    {
      "type": "Feature",
      "properties": {
        "@id": "node/5323226084",
        "amenity": "bank",
        "name": "بانک سپه",
        "name:en": "Sepah Bank",
        "source:name": "map.ir"
      },
      "geometry": {
        "type": "Point",
        "coordinates": [
          59.6511515,
          36.297691
        ]
      },
      "id": "node/5323226084"
    },
    {
      "type": "Feature",
      "properties": {
        "@id": "node/5323255060",
        "amenity": "bank",
        "name": "تجارت",
        "name:en": "Tejarat Bank"
      },
      "geometry": {
        "type": "Point",
        "coordinates": [
          59.641557,
          36.2977176
        ]
      },
      "id": "node/5323255060"
    },
    {
      "type": "Feature",
      "properties": {
        "@id": "node/5323255061",
        "amenity": "bank",
        "name": "بانک مهر اقتصاد"
      },
      "geometry": {
        "type": "Point",
        "coordinates": [
          59.6415917,
          36.2976981
        ]
      },
      "id": "node/5323255061"
    },
    {
      "type": "Feature",
      "properties": {
        "@id": "node/5323255062",
        "amenity": "bank",
        "name": "سپه",
        "name:en": "Sepah Bank"
      },
      "geometry": {
        "type": "Point",
        "coordinates": [
          59.6417421,
          36.2975129
        ]
      },
      "id": "node/5323255062"
    },
    {
      "type": "Feature",
      "properties": {
        "@id": "node/5323255085",
        "amenity": "bank",
        "name": "بانک انصار",
        "name:en": "Ansar Bank"
      },
      "geometry": {
        "type": "Point",
        "coordinates": [
          59.6467925,
          36.3003394
        ]
      },
      "id": "node/5323255085"
    },
    {
      "type": "Feature",
      "properties": {
        "@id": "node/5323268806",
        "amenity": "bank",
        "name": "بانک صادرات",
        "name:en": "Saderat Bank"
      },
      "geometry": {
        "type": "Point",
        "coordinates": [
          59.6531918,
          36.2971861
        ]
      },
      "id": "node/5323268806"
    },
    {
      "type": "Feature",
      "properties": {
        "@id": "node/5323293953",
        "amenity": "bank",
        "name": "بانک رسالت",
        "shop": "supermarket"
      },
      "geometry": {
        "type": "Point",
        "coordinates": [
          59.63893,
          36.3004045
        ]
      },
      "id": "node/5323293953"
    },
    {
      "type": "Feature",
      "properties": {
        "@id": "node/5323444367",
        "amenity": "bank",
        "atm": "yes",
        "name": "موسسه اعتباری ملل"
      },
      "geometry": {
        "type": "Point",
        "coordinates": [
          59.6369806,
          36.3116326
        ]
      },
      "id": "node/5323444367"
    },
    {
      "type": "Feature",
      "properties": {
        "@id": "node/5323444368",
        "amenity": "bank",
        "brand": "بانک صادرات",
        "brand:en": "Bank Saderat Iran",
        "brand:wikidata": "Q2882608",
        "brand:wikipedia": "en:Bank Saderat Iran",
        "name": "بانک صادرات",
        "name:en": "Bank Saderat Iran"
      },
      "geometry": {
        "type": "Point",
        "coordinates": [
          59.6366452,
          36.3102387
        ]
      },
      "id": "node/5323444368"
    },
    {
      "type": "Feature",
      "properties": {
        "@id": "node/5325990033",
        "amenity": "bank",
        "brand": "بانک کشاورزی",
        "brand:en": "Bank Keshavarzi Iran",
        "brand:wikidata": "Q6395007",
        "brand:wikipedia": "en:Bank Keshavarzi Iran",
        "name": "بانک کشاورزی",
        "name:en": "Bank Keshavarzi Iran"
      },
      "geometry": {
        "type": "Point",
        "coordinates": [
          59.6583935,
          36.2700001
        ]
      },
      "id": "node/5325990033"
    },
    {
      "type": "Feature",
      "properties": {
        "@id": "node/5326263520",
        "amenity": "bank",
        "brand": "بانک ملت",
        "brand:en": "Bank Mellat",
        "brand:wikidata": "Q4855944",
        "brand:wikipedia": "en:Bank Mellat",
        "name": "بانک ملت",
        "name:en": "Bank Mellat"
      },
      "geometry": {
        "type": "Point",
        "coordinates": [
          59.6271892,
          36.3390076
        ]
      },
      "id": "node/5326263520"
    },
    {
      "type": "Feature",
      "properties": {
        "@id": "node/5346652723",
        "addr:street": "بین آبکوه ۲۱ و ۲۳",
        "amenity": "bank",
        "name": "بانک سپه",
        "name:en": "Sepah Bank"
      },
      "geometry": {
        "type": "Point",
        "coordinates": [
          59.5767808,
          36.3063044
        ]
      },
      "id": "node/5346652723"
    },
    {
      "type": "Feature",
      "properties": {
        "@id": "node/5349655411",
        "amenity": "bank",
        "name": "Bank Keshavarzi"
      },
      "geometry": {
        "type": "Point",
        "coordinates": [
          59.6208057,
          36.319949
        ]
      },
      "id": "node/5349655411"
    },
    {
      "type": "Feature",
      "properties": {
        "@id": "node/5349678690",
        "amenity": "bank",
        "name": "Bank Mellat"
      },
      "geometry": {
        "type": "Point",
        "coordinates": [
          59.6360827,
          36.3144724
        ]
      },
      "id": "node/5349678690"
    },
    {
      "type": "Feature",
      "properties": {
        "@id": "node/5349700337",
        "amenity": "bank",
        "name": "بانک ثامن"
      },
      "geometry": {
        "type": "Point",
        "coordinates": [
          59.6198111,
          36.3197773
        ]
      },
      "id": "node/5349700337"
    },
    {
      "type": "Feature",
      "properties": {
        "@id": "node/5349701680",
        "amenity": "bank",
        "name": "Bank Mehr"
      },
      "geometry": {
        "type": "Point",
        "coordinates": [
          59.6180622,
          36.3177376
        ]
      },
      "id": "node/5349701680"
    },
    {
      "type": "Feature",
      "properties": {
        "@id": "node/5352126957",
        "amenity": "bank",
        "name": "کارواش"
      },
      "geometry": {
        "type": "Point",
        "coordinates": [
          59.5146985,
          36.3208563
        ]
      },
      "id": "node/5352126957"
    },
    {
      "type": "Feature",
      "properties": {
        "@id": "node/5352193323",
        "amenity": "bank",
        "name": "موسسه ملل"
      },
      "geometry": {
        "type": "Point",
        "coordinates": [
          59.626792,
          36.3386566
        ]
      },
      "id": "node/5352193323"
    },
    {
      "type": "Feature",
      "properties": {
        "@id": "node/5352210580",
        "amenity": "bank",
        "brand": "بانک صادرات",
        "brand:en": "Bank Saderat Iran",
        "brand:wikidata": "Q2882608",
        "brand:wikipedia": "en:Bank Saderat Iran",
        "name": "بانک صادرات",
        "name:en": "Bank Saderat Iran"
      },
      "geometry": {
        "type": "Point",
        "coordinates": [
          59.6283795,
          36.3405075
        ]
      },
      "id": "node/5352210580"
    },
    {
      "type": "Feature",
      "properties": {
        "@id": "node/5352329226",
        "amenity": "bank",
        "atm": "yes",
        "brand": "بانک ملت",
        "brand:en": "Bank Mellat",
        "brand:wikidata": "Q4855944",
        "brand:wikipedia": "en:Bank Mellat",
        "name": "بانک ملت",
        "name:en": "Bank Mellat"
      },
      "geometry": {
        "type": "Point",
        "coordinates": [
          59.5047554,
          36.3338518
        ]
      },
      "id": "node/5352329226"
    },
    {
      "type": "Feature",
      "properties": {
        "@id": "node/5392379322",
        "amenity": "bank",
        "name": "تقویت بانک"
      },
      "geometry": {
        "type": "Point",
        "coordinates": [
          59.6323609,
          36.272934
        ]
      },
      "id": "node/5392379322"
    },
    {
      "type": "Feature",
      "properties": {
        "@id": "node/5481980326",
        "addr:street": "شهید اندرزگو",
        "amenity": "bank",
        "brand": "بانک صادرات",
        "brand:en": "Bank Saderat Iran",
        "brand:wikidata": "Q2882608",
        "brand:wikipedia": "en:Bank Saderat Iran",
        "name": "بانک صادرات",
        "name:ar": "بنك صادرات ايران قسم الزوار العرب",
        "name:en": "Bank Saderat Iran"
      },
      "geometry": {
        "type": "Point",
        "coordinates": [
          59.6114592,
          36.286498
        ]
      },
      "id": "node/5481980326"
    },
    {
      "type": "Feature",
      "properties": {
        "@id": "node/5585635322",
        "addr:street": "خیابان کوهسنگی",
        "amenity": "bank",
        "branch": "کوهسنگی",
        "brand": "بانک مسکن",
        "brand:en": "Bank Maskan",
        "brand:wikidata": "Q4855942",
        "brand:wikipedia": "en:Bank Maskan",
        "name": "بانک مسکن",
        "name:en": "Bank Maskan",
        "website": "http://www.bank-maskan.ir"
      },
      "geometry": {
        "type": "Point",
        "coordinates": [
          59.5714659,
          36.2863008
        ]
      },
      "id": "node/5585635322"
    },
    {
      "type": "Feature",
      "properties": {
        "@id": "node/5602590422",
        "amenity": "bank",
        "name": "بانک انصار",
        "name:en": "Ansar bank"
      },
      "geometry": {
        "type": "Point",
        "coordinates": [
          59.57072,
          36.3018161
        ]
      },
      "id": "node/5602590422"
    },
    {
      "type": "Feature",
      "properties": {
        "@id": "node/5602590521",
        "amenity": "bank",
        "name": "بانک ملی ایران",
        "name:en": "Bank melli iran"
      },
      "geometry": {
        "type": "Point",
        "coordinates": [
          59.5705066,
          36.3011976
        ]
      },
      "id": "node/5602590521"
    },
    {
      "type": "Feature",
      "properties": {
        "@id": "node/5602590522",
        "amenity": "bank",
        "name": "بانک سپه",
        "name:en": "Sepah bank"
      },
      "geometry": {
        "type": "Point",
        "coordinates": [
          59.5710686,
          36.303151
        ]
      },
      "id": "node/5602590522"
    },
    {
      "type": "Feature",
      "properties": {
        "@id": "node/5871418785",
        "addr:housenumber": "532",
        "addr:street": "بلوار امامت",
        "amenity": "bank",
        "name": "بانک انصار",
        "name:en": "Ansar Bank"
      },
      "geometry": {
        "type": "Point",
        "coordinates": [
          59.5363263,
          36.3331893
        ]
      },
      "id": "node/5871418785"
    },
    {
      "type": "Feature",
      "properties": {
        "@id": "node/6044006985",
        "amenity": "bank",
        "name": "بنک ملی",
        "name:fa": "بنك ملي دولار"
      },
      "geometry": {
        "type": "Point",
        "coordinates": [
          59.6006228,
          36.2885083
        ]
      },
      "id": "node/6044006985"
    },
    {
      "type": "Feature",
      "properties": {
        "@id": "node/6126681400",
        "amenity": "bank",
        "atm": "yes"
      },
      "geometry": {
        "type": "Point",
        "coordinates": [
          59.4699633,
          36.3197543
        ]
      },
      "id": "node/6126681400"
    },
    {
      "type": "Feature",
      "properties": {
        "@id": "node/6126681401",
        "amenity": "bank",
        "atm": "yes"
      },
      "geometry": {
        "type": "Point",
        "coordinates": [
          59.4735998,
          36.3296667
        ]
      },
      "id": "node/6126681401"
    },
    {
      "type": "Feature",
      "properties": {
        "@id": "node/6140730989",
        "addr:street": "خیابان امام رضا",
        "amenity": "bank",
        "name": "بانک شهر",
        "opening_hours": "Sa-We 08:00-14:00; Th 08:00-12:00"
      },
      "geometry": {
        "type": "Point",
        "coordinates": [
          59.6066301,
          36.2771044
        ]
      },
      "id": "node/6140730989"
    },
    {
      "type": "Feature",
      "properties": {
        "@id": "node/6166452929",
        "addr:street": "چهارراه دانش آموز",
        "amenity": "bank",
        "brand": "بانک ملی",
        "brand:en": "Bank Melli Iran",
        "brand:wikidata": "Q806640",
        "brand:wikipedia": "en:Bank Melli Iran",
        "name": "بانک ملی",
        "name:en": "Bank Melli Iran"
      },
      "geometry": {
        "type": "Point",
        "coordinates": [
          59.5122057,
          36.3333546
        ]
      },
      "id": "node/6166452929"
    },
    {
      "type": "Feature",
      "properties": {
        "@id": "node/6166452930",
        "addr:street": "بولوار معلم",
        "amenity": "bank",
        "name": "پست بانک",
        "name:en": "Post Bank"
      },
      "geometry": {
        "type": "Point",
        "coordinates": [
          59.5360012,
          36.3260009
        ]
      },
      "id": "node/6166452930"
    },
    {
      "type": "Feature",
      "properties": {
        "@id": "node/6166453094",
        "addr:street": "بولوار استقلال",
        "amenity": "bank",
        "brand": "بانک ملی",
        "brand:en": "Bank Melli Iran",
        "brand:wikidata": "Q806640",
        "brand:wikipedia": "en:Bank Melli Iran",
        "name": "بانک ملی",
        "name:en": "Bank Melli Iran"
      },
      "geometry": {
        "type": "Point",
        "coordinates": [
          59.5384511,
          36.3269919
        ]
      },
      "id": "node/6166453094"
    },
    {
      "type": "Feature",
      "properties": {
        "@id": "node/6166453095",
        "addr:street": "بولوار معلم",
        "amenity": "bank",
        "name": "بانک گردشگری",
        "name:en": "Gardeshgari Bank"
      },
      "geometry": {
        "type": "Point",
        "coordinates": [
          59.5339601,
          36.3264041
        ]
      },
      "id": "node/6166453095"
    },
    {
      "type": "Feature",
      "properties": {
        "@id": "node/6166454218",
        "addr:street": "بولوار استقلال",
        "amenity": "bank",
        "name": "بانک رفاه",
        "name:en": "Refah Bank"
      },
      "geometry": {
        "type": "Point",
        "coordinates": [
          59.5358929,
          36.3274427
        ]
      },
      "id": "node/6166454218"
    },
    {
      "type": "Feature",
      "properties": {
        "@id": "node/6166454219",
        "addr:street": "چهارراه استقلال",
        "amenity": "bank",
        "name": "بانک قوامین",
        "name:en": "Qavamin Bank"
      },
      "geometry": {
        "type": "Point",
        "coordinates": [
          59.5348879,
          36.3280706
        ]
      },
      "id": "node/6166454219"
    },
    {
      "type": "Feature",
      "properties": {
        "@id": "node/6166454223",
        "addr:street": "بولوار معلم",
        "amenity": "bank",
        "brand": "بانک اقتصاد نوین",
        "brand:en": "EN Bank",
        "brand:wikidata": "Q5323768",
        "brand:wikipedia": "en:EN Bank",
        "name": "بانک اقتصاد نوین",
        "name:en": "EN Bank"
      },
      "geometry": {
        "type": "Point",
        "coordinates": [
          59.5339949,
          36.3266171
        ]
      },
      "id": "node/6166454223"
    },
    {
      "type": "Feature",
      "properties": {
        "@id": "node/6166454224",
        "addr:street": "بولوار معلم",
        "amenity": "bank",
        "brand": "بانک سپه",
        "brand:en": "Bank Sepah",
        "brand:wikidata": "Q2882624",
        "brand:wikipedia": "en:Bank Sepah",
        "name": "بانک سپه",
        "name:en": "Bank Sepah"
      },
      "geometry": {
        "type": "Point",
        "coordinates": [
          59.5338499,
          36.3266669
        ]
      },
      "id": "node/6166454224"
    },
    {
      "type": "Feature",
      "properties": {
        "@id": "node/6206286185",
        "amenity": "bank",
        "name": "بانک مسکن"
      },
      "geometry": {
        "type": "Point",
        "coordinates": [
          59.6363297,
          36.3009704
        ]
      },
      "id": "node/6206286185"
    },
    {
      "type": "Feature",
      "properties": {
        "@id": "node/6257269888",
        "amenity": "bank",
        "branch": "سیلو",
        "brand": "بانک ملی",
        "brand:en": "Bank Melli Iran",
        "brand:wikidata": "Q806640",
        "brand:wikipedia": "en:Bank Melli Iran",
        "name": "بانک ملی",
        "name:en": "Bank Melli Iran"
      },
      "geometry": {
        "type": "Point",
        "coordinates": [
          59.633212,
          36.3021244
        ]
      },
      "id": "node/6257269888"
    },
    {
      "type": "Feature",
      "properties": {
        "@id": "node/6356195888",
        "amenity": "bank",
        "name:en": "Tejarat Bank"
      },
      "geometry": {
        "type": "Point",
        "coordinates": [
          59.6006717,
          36.2887372
        ]
      },
      "id": "node/6356195888"
    },
    {
      "type": "Feature",
      "properties": {
        "@id": "node/6357750090",
        "amenity": "bank",
        "name:en": "Bank Melli Iran"
      },
      "geometry": {
        "type": "Point",
        "coordinates": [
          59.5945356,
          36.2840606
        ]
      },
      "id": "node/6357750090"
    },
    {
      "type": "Feature",
      "properties": {
        "@id": "node/6364515375",
        "amenity": "bank",
        "atm": "yes",
        "brand": "بانک تجارت",
        "brand:wikidata": "Q7695198",
        "brand:wikipedia": "en:Tejarat Bank",
        "drive_through": "no",
        "name": "بانک تجارت"
      },
      "geometry": {
        "type": "Point",
        "coordinates": [
          59.5847696,
          36.3179823
        ]
      },
      "id": "node/6364515375"
    },
    {
      "type": "Feature",
      "properties": {
        "@id": "node/6373713236",
        "addr:city": "مشهد",
        "addr:street": "بولوار شهید کلاهدوز روبروی کلاهدوز 52",
        "amenity": "bank",
        "atm": "yes",
        "brand": "بانک ملی ایران",
        "brand:en": "Bank Melli Iran",
        "brand:wikidata": "Q806640",
        "brand:wikipedia": "en:Bank Melli Iran",
        "drive_through": "no",
        "name": "بانک ملی ایران",
        "name:en": "Bank Melli Iran"
      },
      "geometry": {
        "type": "Point",
        "coordinates": [
          59.5852601,
          36.3155349
        ]
      },
      "id": "node/6373713236"
    },
    {
      "type": "Feature",
      "properties": {
        "@id": "node/6426989385",
        "addr:housenumber": "2",
        "addr:street": "هاشمی نژاد ۲۰/۱, آیت الله کاشانی",
        "amenity": "bank",
        "brand": "بانک آینده",
        "brand:en": "Ayandeh Bank",
        "brand:wikidata": "Q5938144",
        "brand:wikipedia": "en:Ayandeh Bank",
        "name": "بانک آینده",
        "name:en": "Ayandeh Bank",
        "operator": "بانک آینده",
        "phone": "05132280445"
      },
      "geometry": {
        "type": "Point",
        "coordinates": [
          59.6192085,
          36.3026557
        ]
      },
      "id": "node/6426989385"
    },
    {
      "type": "Feature",
      "properties": {
        "@id": "node/6566369285",
        "amenity": "bank",
        "name": "مهر اتاب صيرفه"
      },
      "geometry": {
        "type": "Point",
        "coordinates": [
          59.6127956,
          36.295952
        ]
      },
      "id": "node/6566369285"
    },
    {
      "type": "Feature",
      "properties": {
        "@id": "node/6695749186",
        "amenity": "bank",
        "name:ar": "عابر بنك"
      },
      "geometry": {
        "type": "Point",
        "coordinates": [
          59.5336855,
          36.3233752
        ]
      },
      "id": "node/6695749186"
    },
    {
      "type": "Feature",
      "properties": {
        "@id": "node/6711808190",
        "amenity": "bank",
        "name:ar": "مولات وكيل اباد"
      },
      "geometry": {
        "type": "Point",
        "coordinates": [
          59.4342914,
          36.3356041
        ]
      },
      "id": "node/6711808190"
    },
    {
      "type": "Feature",
      "properties": {
        "@id": "node/6719794685",
        "amenity": "bank",
        "name": "شوكت"
      },
      "geometry": {
        "type": "Point",
        "coordinates": [
          59.614491,
          36.3140381
        ]
      },
      "id": "node/6719794685"
    },
    {
      "type": "Feature",
      "properties": {
        "@id": "node/7164783885",
        "amenity": "bank",
        "name": "بانک اقتصاد نوین"
      },
      "geometry": {
        "type": "Point",
        "coordinates": [
          59.5935572,
          36.3237642
        ]
      },
      "id": "node/7164783885"
    },
    {
      "type": "Feature",
      "properties": {
        "@id": "node/7164784085",
        "amenity": "bank",
        "name": "بانک مسکن"
      },
      "geometry": {
        "type": "Point",
        "coordinates": [
          59.5870402,
          36.3173734
        ]
      },
      "id": "node/7164784085"
    },
    {
      "type": "Feature",
      "properties": {
        "@id": "node/7249982310",
        "amenity": "bank",
        "atm": "yes",
        "branch": "پاستور",
        "brand": "بانک ملی",
        "brand:en": "Bank Melli Iran",
        "brand:wikidata": "Q806640",
        "brand:wikipedia": "en:Bank Melli Iran",
        "name": "بانک ملی",
        "name:en": "Bank Melli Iran"
      },
      "geometry": {
        "type": "Point",
        "coordinates": [
          59.5834621,
          36.2975722
        ]
      },
      "id": "node/7249982310"
    },
    {
      "type": "Feature",
      "properties": {
        "@id": "node/7277749515",
        "amenity": "bank",
        "atm": "yes",
        "brand": "Shahr Bank",
        "name": "بانک شهر - سرپرستی منطقه یک"
      },
      "geometry": {
        "type": "Point",
        "coordinates": [
          59.5513514,
          36.3140013
        ]
      },
      "id": "node/7277749515"
    },
    {
      "type": "Feature",
      "properties": {
        "@id": "node/7320792235",
        "amenity": "bank",
        "brand": "بانک سپه",
        "brand:en": "Bank Sepah",
        "brand:wikidata": "Q2882624",
        "brand:wikipedia": "en:Bank Sepah",
        "building": "yes",
        "name": "بانک سپه",
        "name:en": "Bank Sepah"
      },
      "geometry": {
        "type": "Point",
        "coordinates": [
          59.551722,
          36.3178789
        ]
      },
      "id": "node/7320792235"
    },
    {
      "type": "Feature",
      "properties": {
        "@id": "node/7326461462",
        "amenity": "bank",
        "atm": "yes",
        "brand": "Sepah Bank",
        "name": "بانک سپه"
      },
      "geometry": {
        "type": "Point",
        "coordinates": [
          59.6081337,
          36.2890172
        ]
      },
      "id": "node/7326461462"
    },
    {
      "type": "Feature",
      "properties": {
        "@id": "node/7326461469",
        "amenity": "bank",
        "atm": "yes",
        "branch": "باب الجواد",
        "brand": "بانک صادرات",
        "brand:en": "Bank Saderat Iran",
        "brand:wikidata": "Q2882608",
        "brand:wikipedia": "en:Bank Saderat Iran",
        "name": "بانک صادرات",
        "name:en": "Bank Saderat Iran",
        "phone": "+98 51 3222 0271"
      },
      "geometry": {
        "type": "Point",
        "coordinates": [
          59.6098544,
          36.2864293
        ]
      },
      "id": "node/7326461469"
    },
    {
      "type": "Feature",
      "properties": {
        "@id": "node/7326461474",
        "amenity": "bank",
        "atm": "yes",
        "name": "بانک قرض الحسنه مهر ایران",
        "name:en": "Mehr Iran Bank"
      },
      "geometry": {
        "type": "Point",
        "coordinates": [
          59.6116166,
          36.2842586
        ]
      },
      "id": "node/7326461474"
    },
    {
      "type": "Feature",
      "properties": {
        "@id": "node/8041955433",
        "amenity": "bank",
        "atm": "yes",
        "brand": "Sepah",
        "name": "بانک سپه",
        "name:en": "Bank Sepah",
        "website": "www.banksepah.ir",
        "wikipedia": "en:Bank Sepah"
      },
      "geometry": {
        "type": "Point",
        "coordinates": [
          59.6227142,
          36.2565398
        ]
      },
      "id": "node/8041955433"
    },
    {
      "type": "Feature",
      "properties": {
        "@id": "node/8075704375",
        "amenity": "bank",
        "name": "بانک قرض الحسنه رسالت",
        "name:en": "Gharzolhasaneh Resalat Bank",
        "phone": "+98 2128390",
        "website": "https://www.rqbank.ir"
      },
      "geometry": {
        "type": "Point",
        "coordinates": [
          59.6052642,
          36.2618455
        ]
      },
      "id": "node/8075704375"
    },
    {
      "type": "Feature",
      "properties": {
        "@id": "node/8078807602",
        "amenity": "bank",
        "name": "بانک صادرات"
      },
      "geometry": {
        "type": "Point",
        "coordinates": [
          59.635146,
          36.200854
        ]
      },
      "id": "node/8078807602"
    },
    {
      "type": "Feature",
      "properties": {
        "@id": "node/8083880538",
        "amenity": "bank",
        "brand": "بانک صادرات",
        "brand:en": "Bank Saderat Iran",
        "brand:wikidata": "Q2882608",
        "brand:wikipedia": "en:Bank Saderat Iran",
        "name": "بانک صادرات",
        "name:en": "Bank Saderat Iran"
      },
      "geometry": {
        "type": "Point",
        "coordinates": [
          59.6239377,
          36.3182469
        ]
      },
      "id": "node/8083880538"
    },
    {
      "type": "Feature",
      "properties": {
        "@id": "node/8083880539",
        "amenity": "bank",
        "brand": "بانک رفاه",
        "brand:en": "Refah Bank",
        "brand:wikidata": "Q7307083",
        "brand:wikipedia": "en:Refah Bank",
        "name": "بانک رفاه",
        "name:en": "Refah Bank"
      },
      "geometry": {
        "type": "Point",
        "coordinates": [
          59.6240724,
          36.3181845
        ]
      },
      "id": "node/8083880539"
    },
    {
      "type": "Feature",
      "properties": {
        "@id": "node/8083880540",
        "amenity": "bank",
        "brand": "بانک ملت",
        "brand:en": "Bank Mellat",
        "brand:wikidata": "Q4855944",
        "brand:wikipedia": "en:Bank Mellat",
        "name": "بانک ملت",
        "name:en": "Bank Mellat"
      },
      "geometry": {
        "type": "Point",
        "coordinates": [
          59.6255462,
          36.3175677
        ]
      },
      "id": "node/8083880540"
    },
    {
      "type": "Feature",
      "properties": {
        "@id": "node/8083880541",
        "amenity": "bank",
        "brand": "بانک قوامین",
        "brand:en": "Ghavamin Bank",
        "brand:wikidata": "Q10860253",
        "brand:wikipedia": "en:Ghavamin Bank",
        "name": "بانک قوامین",
        "name:en": "Ghavamin Bank"
      },
      "geometry": {
        "type": "Point",
        "coordinates": [
          59.6257698,
          36.3179512
        ]
      },
      "id": "node/8083880541"
    },
    {
      "type": "Feature",
      "properties": {
        "@id": "node/8083880542",
        "amenity": "bank",
        "brand": "بانک ملی",
        "brand:en": "Bank Melli Iran",
        "brand:wikidata": "Q806640",
        "brand:wikipedia": "en:Bank Melli Iran",
        "name": "بانک ملی",
        "name:en": "Bank Melli Iran"
      },
      "geometry": {
        "type": "Point",
        "coordinates": [
          59.6290098,
          36.3166366
        ]
      },
      "id": "node/8083880542"
    },
    {
      "type": "Feature",
      "properties": {
        "@id": "node/8083880543",
        "amenity": "bank",
        "brand": "بانک مهر اقتصاد",
        "brand:wikidata": "Q5942921",
        "brand:wikipedia": "fa:بانک مهر اقتصاد",
        "name": "بانک مهر اقتصاد",
        "name:en": "Mehr Eqtesad Bank"
      },
      "geometry": {
        "type": "Point",
        "coordinates": [
          59.6293539,
          36.3165026
        ]
      },
      "id": "node/8083880543"
    },
    {
      "type": "Feature",
      "properties": {
        "@id": "node/8083880544",
        "amenity": "bank",
        "brand": "بانک مسکن",
        "brand:en": "Bank Maskan",
        "brand:wikidata": "Q4855942",
        "brand:wikipedia": "en:Bank Maskan",
        "name": "بانک مسکن",
        "name:en": "Bank Maskan"
      },
      "geometry": {
        "type": "Point",
        "coordinates": [
          59.6324935,
          36.3147537
        ]
      },
      "id": "node/8083880544"
    },
    {
      "type": "Feature",
      "properties": {
        "@id": "node/8083880545",
        "amenity": "bank",
        "brand": "بانک تجارت",
        "brand:wikidata": "Q7695198",
        "brand:wikipedia": "en:Tejarat Bank",
        "name": "بانک تجارت"
      },
      "geometry": {
        "type": "Point",
        "coordinates": [
          59.6337579,
          36.3147768
        ]
      },
      "id": "node/8083880545"
    },
    {
      "type": "Feature",
      "properties": {
        "@id": "node/8112463402",
        "amenity": "bank",
        "brand": "بانک آینده",
        "brand:en": "Ayandeh Bank",
        "brand:wikidata": "Q5938144",
        "brand:wikipedia": "en:Ayandeh Bank",
        "name": "بانک آینده",
        "name:en": "Ayandeh Bank"
      },
      "geometry": {
        "type": "Point",
        "coordinates": [
          59.4841707,
          36.3311101
        ]
      },
      "id": "node/8112463402"
    },
    {
      "type": "Feature",
      "properties": {
        "@id": "node/8155265325",
        "amenity": "bank",
        "atm": "yes",
        "bic": "8603",
        "branch": "فجر",
        "brand": "bmi",
        "name": "بانک ملی ایران",
        "name:en": "Melli Bank",
        "opening_hours": "Sa-We 07:30-13:30; Th 07:30-12:30",
        "website": "www.bmi.ir"
      },
      "geometry": {
        "type": "Point",
        "coordinates": [
          59.6370158,
          36.3016162
        ]
      },
      "id": "node/8155265325"
    },
    {
      "type": "Feature",
      "properties": {
        "@id": "node/8155265331",
        "amenity": "bank",
        "atm": "yes",
        "bic": "4805",
        "branch": "شعبه طبرسی",
        "name": "بانک آینده",
        "name:en": "Ayandeh Bank"
      },
      "geometry": {
        "type": "Point",
        "coordinates": [
          59.6372411,
          36.3011752
        ]
      },
      "id": "node/8155265331"
    },
    {
      "type": "Feature",
      "properties": {
        "@id": "node/8187606318",
        "amenity": "bank",
        "name:ar": "صرافي سليماني دانش"
      },
      "geometry": {
        "type": "Point",
        "coordinates": [
          59.5974609,
          36.284293
        ]
      },
      "id": "node/8187606318"
    },
    {
      "type": "Feature",
      "properties": {
        "@id": "node/8778213786",
        "amenity": "bank",
        "name": "بانک ملی"
      },
      "geometry": {
        "type": "Point",
        "coordinates": [
          59.6105062,
          36.2816327
        ]
      },
      "id": "node/8778213786"
    },
    {
      "type": "Feature",
      "properties": {
        "@id": "node/8788022100",
        "amenity": "bank",
        "atm": "yes",
        "name": "بانک ملت شعبه سجاد",
        "name:en": "Mellat bank - Sajjad branch"
      },
      "geometry": {
        "type": "Point",
        "coordinates": [
          59.5446071,
          36.3185673
        ]
      },
      "id": "node/8788022100"
    },
    {
      "type": "Feature",
      "properties": {
        "@id": "node/8814502420",
        "amenity": "bank",
        "atm": "yes",
        "name": "بانک ملی شعبه شهید بهشتی",
        "name:en": "Melli Bank - Beheshti branch"
      },
      "geometry": {
        "type": "Point",
        "coordinates": [
          59.5778565,
          36.284653
        ]
      },
      "id": "node/8814502420"
    },
    {
      "type": "Feature",
      "properties": {
        "@id": "node/8827804765",
        "amenity": "bank",
        "atm": "yes",
        "name": "بانک ملی شعبه مدرس"
      },
      "geometry": {
        "type": "Point",
        "coordinates": [
          59.601591,
          36.291467
        ]
      },
      "id": "node/8827804765"
    },
    {
      "type": "Feature",
      "properties": {
        "@id": "node/8827817091",
        "amenity": "bank",
        "atm": "yes",
        "name": "بانک ملی شعبه خیام شمالی"
      },
      "geometry": {
        "type": "Point",
        "coordinates": [
          59.5844419,
          36.3383672
        ]
      },
      "id": "node/8827817091"
    },
    {
      "type": "Feature",
      "properties": {
        "@id": "node/8851020403",
        "amenity": "bank",
        "name": "بانک ملی شعبه مطهری شمالی",
        "name:en": "Melli Bank - North Motahari branch"
      },
      "geometry": {
        "type": "Point",
        "coordinates": [
          59.6077261,
          36.3161208
        ]
      },
      "id": "node/8851020403"
    },
    {
      "type": "Feature",
      "properties": {
        "@id": "node/8851028445",
        "amenity": "bank",
        "atm": "yes",
        "name": "بانک صادرات شعبه مطهری شمالی",
        "name:en": "Sadearat Bank - is a North Motahari branch"
      },
      "geometry": {
        "type": "Point",
        "coordinates": [
          59.6005862,
          36.3108883
        ]
      },
      "id": "node/8851028445"
    },
    {
      "type": "Feature",
      "properties": {
        "@id": "node/8851029087",
        "amenity": "bank",
        "name": "بانک سپه شعبه بیمارستان ١٧ شهریور",
        "name:en": "Sepah Bank - 17th Shahrivar hospital branch"
      },
      "geometry": {
        "type": "Point",
        "coordinates": [
          59.5742282,
          36.2868843
        ]
      },
      "id": "node/8851029087"
    },
    {
      "type": "Feature",
      "properties": {
        "@id": "node/8851035058",
        "amenity": "bank",
        "name": "بانک قرض الحسنه مهر ایران"
      },
      "geometry": {
        "type": "Point",
        "coordinates": [
          59.5462158,
          36.3186504
        ]
      },
      "id": "node/8851035058"
    },
    {
      "type": "Feature",
      "properties": {
        "@id": "node/8852012856",
        "amenity": "bank",
        "atm": "yes",
        "name": "بانک سپه شعبه سجاد",
        "name:en": "Sepah Bank - Sajjad branch"
      },
      "geometry": {
        "type": "Point",
        "coordinates": [
          59.5475809,
          36.3182593
        ]
      },
      "id": "node/8852012856"
    },
    {
      "type": "Feature",
      "properties": {
        "@id": "node/8880370575",
        "amenity": "bank",
        "atm": "yes",
        "name": "بانک ایران زمین شعبه مفتح",
        "name:en": "Iran Zamin bank - Mofateh branch"
      },
      "geometry": {
        "type": "Point",
        "coordinates": [
          59.6401289,
          36.2995486
        ]
      },
      "id": "node/8880370575"
    },
    {
      "type": "Feature",
      "properties": {
        "@id": "node/8880410037",
        "amenity": "bank",
        "atm": "yes",
        "bic": "8527",
        "name": "بانک ملی شعبه مفتح",
        "name:en": "Melli Bank - Mofateh branch"
      },
      "geometry": {
        "type": "Point",
        "coordinates": [
          59.639581,
          36.300275
        ]
      },
      "id": "node/8880410037"
    },
    {
      "type": "Feature",
      "properties": {
        "@id": "node/8880411297",
        "amenity": "bank",
        "atm": "yes",
        "name": "بانک صادرات شعبه سیمتری طلاب",
        "name:en": "Sadearat Bank - Simetri Tolab branch",
        "operator": "Sadearat Bank"
      },
      "geometry": {
        "type": "Point",
        "coordinates": [
          59.6392403,
          36.3002465
        ]
      },
      "id": "node/8880411297"
    },
    {
      "type": "Feature",
      "properties": {
        "@id": "node/8880415684",
        "amenity": "bank",
        "atm": "yes",
        "bic": "1080",
        "name": "بانک رفاه کارگران شعبه شهید مفتح",
        "name:en": "Refah Kargaran Bank - Mofateh branch",
        "operator": "Refah Kargaran Bank"
      },
      "geometry": {
        "type": "Point",
        "coordinates": [
          59.6404374,
          36.2992663
        ]
      },
      "id": "node/8880415684"
    }
  ]
}